X,Y,apn,OBJECTID,licenseNumber,licenseType,licenseStatus,liquorType,issueDate,expirationYear,expirationDate,licenseName,address,endorsements,ward,neighborhood,lat,long,xWebMercator,yWebMercator,lastUpdateDate
-93.2211461456581,44.9876467461178,1902923240200,1,LIC390992,BLLiquor,Approved,On Sale,2020/11/09 08:45:23+00,2021,2021/10/01 23:59:59+00,Manning's Restaurant and Bar,2200 COMO AVE SE," Liquor, On Sale, No Entertainment",2,Como,44.98765,-93.22115,-10377330.5201,5619576.9288,2020/11/10 18:15:17+00
-93.2695552567814,44.9773294507298,2202924440060,2,LIC391791,BLLiquor,Approved,On Sale,2020/12/14 08:51:15+00,2022,2022/01/01 00:00:00+00,Rand Tower Hotel,527 MARQUETTE AVE," Liquor, On Sale, General Entertainment",7,Downtown West,44.97733,-93.26956,-10382719.3977,5617953.178,2021/01/07 18:15:21+00
-93.3080198676909,44.9616111130999,3302924220052,3,LIC392139,BLWine,Approved,On Sale,2021/01/22 13:06:20+00,2022,2022/04/01 23:59:59+00,The Kenwood,2115 21ST ST W," Wine, On Sale, No Entertainment; Wine, On Sale, Add Strong Beer",7,Kenwood,44.96161,-93.30802,-10387001.2586,5615479.9649,2021/01/23 18:15:16+00
-93.284007403378,44.9342350192649,0302824330126,4,LIC368655,BLWine,Pending,On Sale,2020/04/14 15:53:36+00,2021,2021/04/01 12:05:00+00,Good Times,322 38TH ST W," Wine, On Sale, Class E Entertainment; Wine, On Sale, Add Strong Beer; Wine, On Sale, No Entertainment",8,King Field,44.93424,-93.28401,-10384328.2033,5611174.071,2021/01/18 18:15:25+00
-93.2267147509004,44.9266758950055,0702823320029,5,LIC66159,BLWine,Pending,On Sale,2019/04/23 07:50:39+00,2020,2020/04/01 00:00:00+00,CHRIS & ROB'S CHICAGOS TASTE AUTHORITY,3101 42ND ST E," Wine, On Sale, Class D Entertainment; Wine, On Sale, Add Strong Beer; Wine, On Sale, Limited Entertainment",12,Ericsson,44.92668,-93.22671,-10377950.4144,5609985.4834,2020/05/01 18:15:19+00
-93.3014949806758,44.9917854099267,1602924340140,6,LIC80410,BLLiquor,Pending,On Sale,2019/08/22 08:49:57+00,2020,2020/04/01 00:00:00+00,Elk's Lounge,1614 PLYMOUTH AVE N," Liquor, On Sale, Bottle Club",5,Near - North,44.99179,-93.30149,-10386274.9115,5620228.3598,2020/11/18 18:15:17+00
-93.2636539631686,44.9743189809746,2602924220044,7,LIC389838,BLWine,Pending,On Sale,2020/09/08 09:03:08+00,2021,2021/04/01 23:59:59+00,Eurest Dining Services,600 PORTLAND AVE," Wine, On Sale, No Entertainment; Wine, On Sale, Add Strong Beer",7,Elliot Park,44.97432,-93.26365,-10382062.4687,5617479.441,2021/01/19 18:15:17+00
-93.2570564823971,44.9764279582748,2602924120016,8,LIC379368,BLLiquor,Pending,On Sale,2020/01/23 09:25:35+00,2020,2020/04/01 23:59:00+00,Moxy Minneapolis Downtown,247 CHICAGO AVE," Liquor, On Sale, General Entertainment",3,Downtown East,44.97643,-93.25706,-10381328.0405,5617811.3137,2020/06/27 18:15:17+00
-93.2694189661832,44.947791727184,0302824110232,9,LIC380557,BLWine,Pending,On Sale,2019/12/17 07:36:52+00,2020,2020/04/01 00:00:00+00,Las Charolas Restaurant,417 LAKE ST E #79," Wine, On Sale, No Entertainment; Wine, On Sale, Add Strong Beer",9,Central,44.94779,-93.26942,-10382704.2259,5613306.1034,2020/10/24 18:15:16+00
-93.2358676242449,44.9656015788143,2502924430077,10,LIC346088,BLWine,Pending,On Sale,2020/04/06 08:57:56+00,2021,2021/04/01 23:59:00+00,Davanni's Pizza & Hot Hoagies,2500 RIVERSIDE AVE," Wine, On Sale, Add Strong Beer; Wine, On Sale, Class E Entertainment; Wine, On Sale, No Entertainment",2,Cedar Riverside,44.9656,-93.23587,-10378969.3076,5616107.7834,2021/01/19 18:15:17+00
-93.2298305350055,44.9876001679231,2402924140005,11,LIC359771,BLWine,Pending,On Sale,2020/03/23 08:59:32+00,2021,2021/04/01 23:59:59+00,RAMEN KAZAMA SELECT,1510 COMO AVE SE," Wine, On Sale, Class E Entertainment; Wine, On Sale, Add Strong Beer; Wine, On Sale, No Entertainment",2,Como,44.9876,-93.22983,-10378297.2619,5619569.5976,2021/01/19 18:15:17+00
-93.2235728069559,44.9345205736859,0602823330027,12,LIC74695,BLBeer,Pending,On Sale,2015/12/11 00:00:00+00,2021,2021/04/01 00:00:00+00,Vincent Giantvalley Post,3751 MINNEHAHA AVE," Beer, On Sale, Bottle Club",12,Howe,44.93452,-93.22357,-10377600.6548,5611218.9743,2021/01/17 18:15:24+00
-93.2450729448289,44.9999811058796,1302924230042,13,LIC374651,BLWine,Pending,On Sale,2019/05/07 08:04:18+00,2021,2021/04/01 00:00:00+00,Dogwood Coffee,1209 TYLER ST NE #150," Wine, On Sale, Class E Entertainment; Wine, On Sale, Add Strong Beer; Wine, On Sale, No Entertainment",1,Northeast Park,44.99998,-93.24507,-10379994.0392,5621518.5117,2021/01/21 18:15:25+00
-93.2643614682015,45.0005799867641,1402924230091,14,LIC386217,BLWine,Pending,On Sale,2020/02/24 10:00:24+00,2021,2021/04/01 23:59:59+00,Mary Ellen's Bistro,300 13TH AVE NE," Wine, On Sale, No Entertainment; Wine, On Sale, Add Strong Beer",3,Sheridan,45.00058,-93.26436,-10382141.2278,5621612.7937,2021/01/19 18:15:17+00
-93.3243666169172,44.922916722036,0802824330009,15,LIC355382,BLWine,Approved,On Sale,2020/04/06 08:57:46+00,2021,2021/04/01 23:59:59+00,PENNY'S COFFEE,3509 44TH ST W," Wine, On Sale, Class D Entertainment; Wine, On Sale, Add Strong Beer; Wine, On Sale, Limited Entertainment",13,Linden Hills,44.92292,-93.32437,-10388820.9704,5609394.4538,2020/04/07 18:15:18+00
-93.2195052506208,44.9340620310995,0702823210046,16,LIC350829,BLWine,Pending,On Sale,2020/04/06 08:57:06+00,2021,2021/04/01 23:59:59+00,FIREROAST CAFE,3800 37TH AVE S," Wine, On Sale, Add Strong Beer; Wine, On Sale, Class E Entertainment; Wine, On Sale, No Entertainment",12,Howe,44.93406,-93.21951,-10377147.8565,5611146.8688,2021/01/19 18:15:17+00
-93.2528388597988,44.9086298381239,1402824430003,17,LIC350897,BLWine,Pending,On Sale,2020/04/06 08:57:39+00,2021,2021/04/01 23:59:00+00,HOT PLATE 2.0,5204 BLOOMINGTON AVE," Wine, On Sale, Class E Entertainment; Wine, On Sale, Add Strong Beer; Wine, On Sale, No Entertainment",11,Hale,44.90863,-93.25284,-10380858.5369,5607148.5754,2021/01/19 18:15:17+00
-93.2534591006884,44.989710959765,2302924120243,18,LIC65908,BLWine,Pending,On Sale,2020/03/23 08:59:42+00,2021,2021/04/01 00:00:00+00,GARDENS OF SALONICA,19 5TH ST NE," Wine, On Sale, Class E Entertainment; Wine, On Sale, Add Strong Beer; Wine, On Sale, No Entertainment",3,Nicollet Island - East Bank,44.98971,-93.25346,-10380927.5818,5619901.8328,2021/01/18 18:15:25+00
-93.2339913229924,44.9472241262328,0102824120041,19,LIC353749,BLWine,Pending,On Sale,2020/04/06 08:57:38+00,2021,2021/04/01 23:59:00+00,Geek Love Cafe At Moon Palace Books,3032 MINNEHAHA AVE," Wine, On Sale, Add Strong Beer; Wine, On Sale, Class A Entertainment; Wine, On Sale, General Entertainment",9,Longfellow,44.94721,-93.23398,-10378760.4387,5613216.828,2021/01/19 18:15:17+00
-93.2223281021966,44.9325938727352,0702823210122,20,LIC368420,BLWine,Pending,On Sale,2020/03/23 08:59:51+00,2021,2021/04/01 23:59:59+00,MESERET ETHIOPIAN RESTAURANT,3867 MINNEHAHA AVE," Wine, On Sale, Add Strong Beer; Wine, On Sale, No Entertainment",12,Howe,44.93259,-93.22233,-10377462.0949,5610916.0058,2021/01/19 18:15:17+00
-93.2567024868864,44.9785232112436,2302924439001,21,LIC390597,BLWine,Pending,On Sale,2020/10/01 10:13:19+00,2021,2021/04/01 23:59:59+00,F + B,750 2ND ST S," Wine, On Sale, Add Strong Beer; Wine, On Sale, No Entertainment",3,Downtown East,44.97852,-93.2567,-10381288.6339,5618141.0388,2021/01/19 18:15:17+00
-93.2884809658822,44.9535552832338,3302924410036,22,LIC373613,BLWine,Pending,On Sale,2020/04/06 08:57:35+00,2021,2021/04/01 23:59:59+00,FIRE & NICE ALEHOUSE,2700 LYNDALE AVE S," Wine, On Sale, Class E Entertainment; Wine, On Sale, Add Strong Beer; Wine, On Sale, No Entertainment",10,Lowry Hill East,44.95356,-93.28848,-10384826.198,5614212.6772,2021/01/19 18:15:17+00
-93.3185961485525,44.9126953060345,1702824130190,23,LIC369967,BLWine,Pending,On Sale,2020/04/06 08:56:53+00,2021,2021/04/01 23:59:00+00,Taqueria el Travieso,4953 XERXES AVE S," Wine, On Sale, Class E Entertainment; Wine, On Sale, Add Strong Beer; Wine, On Sale, No Entertainment",13,Fulton,44.9127,-93.3186,-10388178.6048,5607787.6045,2021/01/19 18:15:17+00
-93.246937534745,44.927132019933,1202824230131,24,LIC384742,BLWine,Pending,On Sale,2020/04/06 08:57:31+00,2021,2021/04/01 23:59:59+00,Cedar Inn,4155 CEDAR AVE S," Wine, On Sale, Add Strong Beer; Wine, On Sale, No Entertainment",12,Standish,44.92713,-93.24694,-10380201.6044,5610057.1995,2021/01/20 18:15:17+00
-93.2754776554135,44.9780087670849,2202924430210,25,LIC107349,BLLiquor,Pending,On Sale,2020/12/15 11:15:12+00,2021,2021/01/01 00:00:00+00,7 Steakhouse,700 HENNEPIN AVE," Liquor, On Sale, Class A Entertainment; Liquor, On Sale, General Entertainment",7,Downtown West,44.97801,-93.27548,-10383378.6761,5618060.0808,2020/12/16 18:15:17+00
-93.2622586774114,44.9087325139109,1402824340059,26,LIC381701,BLWine,Pending,On Sale,2020/12/28 10:31:05+00,2021,2021/04/01 23:59:59+00,Heather's,5201 CHICAGO AVE," Wine, On Sale, Add Strong Beer; Wine, On Sale, No Entertainment",11,Hale,44.90873,-93.26226,-10381907.1462,5607164.7139,2021/01/19 18:15:17+00
-93.2233262661229,44.8984797637469,1902823230100,27,LIC369207,BLWine,Pending,On Sale,2020/04/14 15:53:51+00,2021,2021/04/01 23:59:59+00,TACOS LUPITA,5748 34TH AVE S," Wine, On Sale, Class C1 Entertainment; Wine, On Sale, Add Strong Beer; Wine, On Sale, Limited Entertainment",11,Wenonah,44.89848,-93.22333,-10377573.21,5605553.3369,2021/01/19 18:15:17+00
-93.2551828096152,44.9881208990825,2302924120019,28,LIC75787,BLLiquor,Pending,On Sale,2019/09/18 22:32:57+00,2020,2020/04/01 00:00:00+00,Masu Sushi & Robata,328 HENNEPIN AVE E," Liquor, On Sale, Class E Entertainment; Liquor, On Sale, No Entertainment",3,Nicollet Island - East Bank,44.98812,-93.25518,-10381119.4642,5619651.5587,2020/07/22 18:15:16+00
-93.3046074733537,44.9485799348383,3302924330019,29,LIC367600,BLWine,Pending,On Sale,2020/04/06 08:57:29+00,2021,2021/04/01 23:59:00+00,BRIM AND BRIM RESTAURANT,2919 KNOX AVE S," Wine, On Sale, Class E Entertainment; Wine, On Sale, Add Strong Beer; Wine, On Sale, No Entertainment",7,East Isles,44.94858,-93.30461,-10386621.3926,5613430.0785,2021/01/19 18:15:17+00
-93.2986717392312,44.9468610268842,0402824210187,30,LIC375993,BLWine,Pending,On Sale,2020/04/14 15:53:54+00,2021,2021/04/01 23:59:59+00,The Tasting Room,1434 31ST ST W," Wine, On Sale, Add Strong Beer; Wine, On Sale, Limited Entertainment",10,ECCO,44.94686,-93.29867,-10385960.6297,5613159.7182,2021/01/19 18:15:17+00
-93.2246516171368,44.9956360757907,1802923320026,31,LIC373533,BLWine,Pending,On Sale,2020/03/23 08:59:37+00,2021,2021/04/01 23:59:59+00,Bad Axe Throwing USA,2505 KENNEDY ST NE," Wine, On Sale, Class E Entertainment; Wine, On Sale, Add Strong Beer; Wine, On Sale, No Entertainment",1,Mid - City Industrial,44.99564,-93.22465,-10377720.7474,5620834.5018,2021/01/19 18:15:17+00
-93.2263929078903,44.9316787227067,0702823220003,32,LIC107272,BLWine,Pending,On Sale,2020/04/21 10:05:56+00,2021,2021/04/01 23:59:59+00,MESOB ETHIOPIAN RESTAURANT AND CARRY OUT,3915 HIAWATHA AVE," Wine, On Sale, Add Strong Beer; Wine, On Sale, Class E Entertainment; Wine, On Sale, No Entertainment",12,Howe,44.93168,-93.22639,-10377914.587,5610772.1045,2021/01/19 18:15:17+00
-93.3287374364074,44.921115041881,0802824330143,33,LIC331095,BLWine,Pending,On Sale,2020/03/23 08:59:47+00,2021,2021/04/01 23:59:00+00,JIMMIE'S OLD SOUTHERN BBQ SMOKEHOUSE,4501 FRANCE AVE S," Wine, On Sale, Add Strong Beer; Wine, On Sale, Class E Entertainment; Wine, On Sale, No Entertainment",13,Linden Hills,44.92112,-93.32874,-10389307.5278,5609111.2014,2021/01/19 18:15:17+00
-93.2910929136905,44.9248587180288,0902824410213,34,LIC350682,BLWine,Pending,On Sale,2020/03/23 08:59:18+00,2021,2021/04/01 23:59:59+00,TENANT RESTAURANT,4300 BRYANT AVE S," Wine, On Sale, Add Strong Beer; Wine, On Sale, Class E Entertainment; Wine, On Sale, No Entertainment",13,East Harriet,44.92486,-93.29109,-10385116.9587,5609699.776,2021/01/19 18:15:17+00
-93.253664742125,44.9751894818321,2602924120052,35,LIC352339,BLWine,Pending,On Sale,2020/04/06 08:57:10+00,2021,2021/04/01 23:59:00+00,Northern Coffeeworks,1027 WASHINGTON AVE S," Wine, On Sale, Add Strong Beer; Wine, On Sale, Class C2 Entertainment; Wine, On Sale, Limited Entertainment",3,Downtown East,44.97519,-93.25366,-10380950.4737,5617616.4232,2021/01/19 18:15:17+00
-93.2391629339645,44.9343395157639,0102824340067,36,LIC353534,BLWine,Pending,On Sale,2020/04/14 15:54:37+00,2021,2021/04/01 23:59:00+00,Sister's Sludge Coffee Cafe and Wine Bar,3746 23RD AVE S," Wine, On Sale, Class C2 Entertainment; Wine, On Sale, Add Strong Beer; Wine, On Sale, Limited Entertainment",12,Standish,44.93434,-93.23916,-10379336.1398,5611190.503,2021/01/19 18:15:17+00
-93.2774417903412,44.9628447031205,2702924430061,37,LIC354271,BLWine,Pending,On Sale,2020/04/06 08:57:00+00,2021,2021/04/01 23:59:00+00,Cajun Boiling,1931 NICOLLET AVE," Wine, On Sale, Add Strong Beer; Wine, On Sale, Class E Entertainment; Wine, On Sale, No Entertainment",6,Steven's Square - Loring Heights,44.96284,-93.27744,-10383597.3226,5615674.0405,2021/01/19 18:15:17+00
-93.297318063438,44.9474261957242,0402824120216,38,LIC65463,BLWine,Pending,On Sale,2020/12/28 10:31:06+00,2021,2021/04/01 00:00:00+00,Kitchen Window,3001 HENNEPIN AVE," Wine, On Sale, Class E Entertainment; Wine, On Sale, Add Strong Beer; Wine, On Sale, No Entertainment",10,South Uptown,44.94743,-93.29732,-10385809.9392,5613248.6105,2021/01/18 18:15:25+00
-93.2656784648834,44.9813915731593,2302924320012,39,LIC107136,BLWine,Pending,On Sale,2020/04/14 15:53:45+00,2021,2021/04/01 23:59:00+00,Penny's Coffee,100 WASHINGTON AVE S #100," Wine, On Sale, Add Strong Beer; Wine, On Sale, Class D Entertainment; Wine, On Sale, Limited Entertainment",3,Downtown West,44.98139,-93.26568,-10382287.8352,5618592.4458,2021/01/19 18:15:17+00
-93.3150095322541,44.9244734377601,0802824420099,40,LIC344318,BLWine,Pending,On Sale,2020/03/23 08:59:37+00,2021,2021/04/01 23:59:59+00,ZUMBRO CAFE,2803 43RD ST W," Wine, On Sale, Class E Entertainment; Wine, On Sale, Add Strong Beer; Wine, On Sale, No Entertainment",13,Linden Hills,44.92447,-93.31501,-10387779.3445,5609639.2011,2021/01/19 18:15:17+00
-93.2459615349517,45.0043817390099,1302924220088,41,LIC344130,BLWine,Pending,On Sale,2020/04/14 15:53:40+00,2021,2021/04/01 00:00:00+00,Minnsky Theatre,1517 CENTRAL AVE NE," Wine, On Sale, Class A Entertainment; Wine, On Sale, Add Strong Beer; Wine, On Sale, General Entertainment",1,Northeast Park,45.00438,-93.24596,-10380092.9566,5622211.3277,2021/01/18 18:15:25+00
-93.246846838139,44.9724631507313,2502924230082,42,LIC344607,BLWine,Pending,On Sale,2020/03/23 08:59:35+00,2021,2021/04/01 23:59:00+00,THEATRE IN THE ROUND,245 CEDAR AVE S," Wine, On Sale, Class A Entertainment; Wine, On Sale, Add Strong Beer; Wine, On Sale, General Entertainment",6,Cedar Riverside,44.97246,-93.24685,-10380191.5081,5617187.4141,2021/01/19 18:15:17+00
-93.2840692155544,44.9339455581366,1002824220115,43,LIC350844,BLWine,Pending,On Sale,2020/04/06 08:58:01+00,2021,2021/04/01 00:00:00+00,RINCON 38,3801 GRAND AVE S," Wine, On Sale, Add Strong Beer; Wine, On Sale, Class C2 Entertainment; Wine, On Sale, Limited Entertainment",8,King Field,44.93395,-93.28407,-10384335.0842,5611128.5536,2021/01/18 18:15:25+00
-93.269035793392,44.9829568660582,2202924410131,44,LIC65394,BLWine,Pending,On Sale,2020/04/06 08:57:53+00,2021,2021/04/01 00:00:00+00,WHOLE FOODS MARKET,222 HENNEPIN AVE #A," Wine, On Sale, Class E Entertainment; Wine, On Sale, Add Strong Beer; Wine, On Sale, Culinary Classes; Wine, On Sale, No Entertainment",3,North Loop,44.98296,-93.26904,-10382661.5713,5618838.7925,2021/01/18 18:15:25+00
-93.2623177398447,44.9013598492301,2302824240190,45,LIC373605,BLWine,Pending,On Sale,2019/05/07 08:04:14+00,2020,2020/04/01 23:59:00+00,Guavas Cuban Cafe,5607 CHICAGO AVE," Wine, On Sale, Class E Entertainment; Wine, On Sale, Add Strong Beer; Wine, On Sale, No Entertainment",11,Diamond Lake,44.90136,-93.26232,-10381913.721,5606005.9575,2020/07/10 18:15:17+00
-93.2231291559866,44.9732063437684,3002923230157,46,LIC66241,BLWine,Pending,On Sale,2020/04/14 15:53:28+00,2021,2021/04/01 00:00:00+00,BLAZE PIZZA,1000 WASHINGTON AVE SE," Wine, On Sale, Class E Entertainment; Wine, On Sale, Add Strong Beer; Wine, On Sale, No Entertainment",2,Prospect Park - East River Road,44.97321,-93.22313,-10377551.2678,5617304.3592,2021/01/18 18:15:25+00
-93.2334069078146,44.9481120301363,0102824120098,47,LIC65831,BLWine,Pending,On Sale,2020/04/06 08:57:36+00,2021,2021/04/01 00:00:00+00,Floating World Cafe,2629 LAKE ST E," Wine, On Sale, Class E Entertainment; Wine, On Sale, Add Strong Beer; Wine, On Sale, No Entertainment",2,Longfellow,44.94811,-93.23341,-10378695.3819,5613356.4828,2021/01/18 18:15:25+00
-93.2300699135708,44.9342736560281,0102824440074,48,LIC65360,BLWine,Pending,On Sale,2019/04/23 07:50:40+00,2020,2020/04/01 00:00:00+00,CARDINAL BAR,2920 38TH ST E," Wine, On Sale, Class C2 Entertainment; Wine, On Sale, Add Strong Beer; Wine, On Sale, Limited Entertainment",12,Standish,44.93427,-93.23007,-10378323.9094,5611180.1466,2020/01/21 18:15:18+00
-93.2622808900534,44.9380165611176,0202824310087,49,LIC66105,BLWine,Pending,On Sale,2020/04/06 08:57:21+00,2021,2021/04/01 00:00:00+00,Jakeenos Pizza & Pasta,3555 CHICAGO AVE," Wine, On Sale, Class E Entertainment; Wine, On Sale, Add Strong Beer; Wine, On Sale, No Entertainment",9,Powderhorn Park,44.93802,-93.26228,-10381909.6189,5611768.7348,2021/01/18 18:15:25+00
-93.2476622353291,44.9393912291803,0202824410199,50,LIC65468,BLWine,Pending,On Sale,2020/03/23 08:59:30+00,2021,2021/04/01 00:00:00+00,MATT'S BAR,3500 CEDAR AVE S," Wine, On Sale, Class E Entertainment; Wine, On Sale, Add Strong Beer; Wine, On Sale, No Entertainment",9,Powderhorn Park,44.93939,-93.24766,-10380282.2777,5611984.917,2021/01/18 18:15:25+00
-93.2762822530573,44.9479113681377,0302824120146,51,LIC66069,BLWine,Pending,On Sale,2020/04/06 08:57:39+00,2021,2021/04/01 00:00:00+00,HIBACHI BUFFET,111 LAKE ST E," Wine, On Sale, Class E Entertainment; Wine, On Sale, Add Strong Beer; Wine, On Sale, No Entertainment",8,Lyndale,44.94791,-93.27628,-10383468.2435,5613324.9213,2021/01/18 18:15:25+00
-93.287689994783,44.9470541622401,0302824220091,52,LIC65555,BLWine,Pending,On Sale,2020/03/23 08:59:06+00,2021,2021/04/01 00:00:00+00,HUGE IMPROV THEATER,3037 LYNDALE AVE S," Wine, On Sale, Class A Entertainment; Wine, On Sale, Add Strong Beer; Wine, On Sale, General Entertainment",8,Lyndale,44.94705,-93.28769,-10384738.1475,5613190.0953,2021/01/18 18:15:25+00
-93.2876886239538,44.9471803559131,0302824220092,53,LIC65597,BLWine,Pending,On Sale,2020/04/14 15:53:47+00,2021,2021/04/01 00:00:00+00,Saigon Uptown Restaurant,3035 LYNDALE AVE S," Wine, On Sale, Class E Entertainment; Wine, On Sale, Add Strong Beer; Wine, On Sale, No Entertainment",8,Lyndale,44.94718,-93.28769,-10384737.9949,5613209.9436,2021/01/18 18:15:25+00
-93.2781999208303,44.9410768860853,0302824310003,54,LIC66049,BLWine,Pending,On Sale,2020/03/23 08:59:13+00,2021,2021/04/01 00:00:00+00,RAMEN KAZAMA,3400 NICOLLET AVE," Wine, On Sale, Class E Entertainment; Wine, On Sale, Add Strong Beer; Wine, On Sale, No Entertainment",8,Lyndale,44.94108,-93.2782,-10383681.7173,5612250.0128,2021/01/18 18:15:25+00
-93.2878154166646,44.9411610087309,0302824320060,55,LIC65644,BLWine,Pending,On Sale,2020/04/06 08:57:49+00,2021,2021/04/01 00:00:00+00,SONNY'S CAFE,3403 LYNDALE AVE S," Wine, On Sale, Class E Entertainment; Wine, On Sale, Add Strong Beer; Wine, On Sale, No Entertainment",8,Lyndale,44.94116,-93.28782,-10384752.1094,5612263.2426,2021/01/18 18:15:25+00
-93.2846223433091,44.9342330249773,0302824330289,56,LIC65239,BLWine,Pending,On Sale,2020/03/23 08:59:22+00,2021,2021/04/01 00:00:00+00,VICTORS 1959 CAFE,3756 GRAND AVE S," Wine, On Sale, Class E Entertainment; Wine, On Sale, Add Strong Beer; Wine, On Sale, No Entertainment",8,King Field,44.93423,-93.28462,-10384396.6581,5611173.7574,2021/01/18 18:15:25+00
-93.2886198831544,44.9476573618413,0402824110009,57,LIC66041,BLWine,Pending,On Sale,2020/04/06 08:57:14+00,2021,2021/04/01 00:00:00+00,Szechuan Spice,3016 LYNDALE AVE S," Wine, On Sale, Class E Entertainment; Wine, On Sale, Add Strong Beer; Wine, On Sale, No Entertainment",10,South Uptown,44.94766,-93.28862,-10384841.6622,5613284.9696,2021/01/18 18:15:25+00
-93.288566000407,44.9445057279395,0402824140005,58,LIC65490,BLWine,Pending,On Sale,2020/03/23 08:59:53+00,2021,2021/04/01 00:00:00+00,Pizza Luce,3200 LYNDALE AVE S," Wine, On Sale, Class E Entertainment; Wine, On Sale, Add Strong Beer; Wine, On Sale, No Entertainment",10,South Uptown,44.94451,-93.28857,-10384835.664,5612789.2756,2021/01/18 18:15:25+00
-93.2886157697687,44.9397533672828,0402824410080,59,LIC65936,BLWine,Pending,On Sale,2020/04/14 15:53:57+00,2021,2021/04/01 00:00:00+00,VO'S VIETNAMESE RESTAURANT,3450 LYNDALE AVE S," Wine, On Sale, Class E Entertainment; Wine, On Sale, Add Strong Beer; Wine, On Sale, No Entertainment",10,South Uptown,44.93975,-93.28862,-10384841.2043,5612041.8682,2021/01/18 18:15:25+00
-93.2903900574392,44.9379167158704,0402824410186,60,LIC65678,BLWine,Pending,On Sale,2020/04/14 15:53:35+00,2021,2021/04/01 00:00:00+00,GIGI'S CAFE,824 36TH ST W," Wine, On Sale, Class E Entertainment; Wine, On Sale, Add Strong Beer; Wine, On Sale, No Entertainment",10,South Uptown,44.93792,-93.29039,-10385038.7171,5611753.0332,2021/01/18 18:15:25+00
-93.3223138748648,44.9465989362375,0502824210037,61,LIC65583,BLWine,Pending,On Sale,2020/04/14 15:53:42+00,2021,2021/04/01 00:00:00+00,MY BURGER,3100 EXCELSIOR BLVD," Wine, On Sale, Class E Entertainment; Wine, On Sale, Add Strong Beer; Wine, On Sale, No Entertainment",13,West Calhoun,44.9466,-93.32231,-10388592.4602,5613118.4957,2021/01/18 18:15:25+00
-93.2142950111931,44.9480772180017,0602823120026,62,LIC66162,BLWine,Pending,On Sale,2020/04/06 08:57:04+00,2021,2021/04/01 00:00:00+00,DOGWOOD COFFEE CO,4023 LAKE ST E," Wine, On Sale, Class E Entertainment; Wine, On Sale, Add Strong Beer; Wine, On Sale, No Entertainment",2,Cooper,44.94808,-93.2143,-10376567.8553,5613351.0073,2021/01/18 18:15:25+00
-93.2124900020382,44.9344690270568,0602823440114,63,LIC65319,BLWine,Pending,On Sale,2020/04/06 08:57:25+00,2021,2021/04/01 00:00:00+00,RIVERVIEW CAFE & WINE BAR,3753 42ND AVE S," Wine, On Sale, Class C2 Entertainment; Wine, On Sale, Add Strong Beer; Wine, On Sale, Limited Entertainment",12,Howe,44.93447,-93.21249,-10376366.9226,5611210.8686,2021/01/18 18:15:25+00
-93.2215837249145,44.9302082717673,0702823240057,64,LIC66043,BLWine,Pending,On Sale,2020/04/06 08:57:34+00,2021,2021/04/01 00:00:00+00,DUMPLING,4004 MINNEHAHA AVE," Wine, On Sale, Class E Entertainment; Wine, On Sale, Add Strong Beer; Wine, On Sale, No Entertainment",12,Hiawatha,44.93021,-93.22158,-10377379.2312,5610540.8906,2021/01/18 18:15:25+00
-93.2163917850675,44.9234946141968,0702823420037,65,LIC66209,BLWine,Pending,On Sale,2020/04/06 08:57:12+00,2021,2021/04/01 00:00:00+00,PARKWAY PIZZA,4359 MINNEHAHA AVE," Wine, On Sale, Class E Entertainment; Wine, On Sale, Add Strong Beer; Wine, On Sale, No Entertainment",12,Hiawatha,44.92349,-93.21639,-10376801.2671,5609485.3094,2021/01/18 18:15:25+00
-93.31381774096,44.9247029102969,0802824420003,66,LIC65301,BLWine,Pending,On Sale,2020/04/14 15:54:06+00,2021,2021/04/01 00:00:00+00,HARRIET BRASSERIE,2724 43RD ST W," Wine, On Sale, Class E Entertainment; Wine, On Sale, Add Strong Beer; Wine, On Sale, No Entertainment",13,Linden Hills,44.9247,-93.31382,-10387646.6749,5609675.2794,2021/01/18 18:15:25+00
-93.3153356943641,44.9248535508613,0802824420033,67,LIC65810,BLWine,Pending,On Sale,2020/04/14 15:54:31+00,2021,2021/04/01 00:00:00+00,NAVIYA'S THAI BRASSERIE,2812 43RD ST W," Wine, On Sale, Class E Entertainment; Wine, On Sale, Add Strong Beer; Wine, On Sale, No Entertainment",13,Linden Hills,44.92485,-93.31534,-10387815.6527,5609698.9636,2021/01/18 18:15:25+00
-93.3149779717433,45.013446173742,0802924130191,68,LIC66016,BLWine,Pending,On Sale,2020/04/21 10:05:59+00,2021,2021/04/01 00:00:00+00,Tooties on Lowry,2706 LOWRY AVE N," Wine, On Sale, Class E Entertainment; Wine, On Sale, Add Strong Beer; Wine, On Sale, No Entertainment",4,Cleveland,45.01345,-93.31498,-10387775.8312,5623638.5595,2021/01/18 18:15:25+00
-93.2974934621922,44.928236464783,0902824130001,69,LIC65878,BLWine,Pending,On Sale,2020/04/14 15:54:01+00,2021,2021/04/01 00:00:00+00,BREAD & PICKLE,4135 WEST LAKE HARRIET PKWY," Wine, On Sale, Class E Entertainment; Wine, On Sale, Add Strong Beer; Wine, On Sale, No Entertainment",10,East Harriet,44.92824,-93.29749,-10385829.4645,5610230.8527,2021/01/18 18:15:25+00
-93.2775360891915,44.9251964388655,1002824420142,70,LIC66120,BLWine,Pending,On Sale,2020/04/14 15:53:47+00,2021,2021/04/01 00:00:00+00,REVIVAL MPLS,4257 NICOLLET AVE," Wine, On Sale, Class E Entertainment; Wine, On Sale, Add Strong Beer; Wine, On Sale, No Entertainment",8,King Field,44.9252,-93.27754,-10383607.8199,5609752.8738,2021/01/18 18:15:25+00
-93.2775315832421,44.9265952327022,1002824420178,71,LIC65386,BLWine,Pending,On Sale,2020/04/06 08:57:02+00,2021,2021/04/01 00:00:00+00,CURRAN'S RESTAURANT,4201 NICOLLET AVE," Wine, On Sale, Class D Entertainment; Wine, On Sale, Add Strong Beer; Wine, On Sale, Limited Entertainment",8,King Field,44.9266,-93.27753,-10383607.3183,5609972.801,2021/01/18 18:15:25+00
-93.2775437832619,44.9227418940035,1002824430024,72,LIC65405,BLWine,Pending,On Sale,2020/04/14 15:54:02+00,2021,2021/04/01 00:00:00+00,DRIFTWOOD,4415 NICOLLET AVE," Wine, On Sale, Class C1 Entertainment; Wine, On Sale, Add Strong Beer; Wine, On Sale, Limited Entertainment",8,King Field,44.92274,-93.27754,-10383608.6764,5609366.9677,2021/01/18 18:15:25+00
-93.2477567955891,45.0128984488817,1102924410003,73,LIC65531,BLWine,Pending,On Sale,2020/03/23 08:59:56+00,2021,2021/04/01 00:00:00+00,"SEN YAI SEN LEK, DIPPED & DEBRIS",2422 CENTRAL AVE NE," Wine, On Sale, Class E Entertainment; Wine, On Sale, Add Strong Beer; Wine, On Sale, No Entertainment",1,Holland,45.0129,-93.24776,-10380292.8041,5623552.3116,2021/01/18 18:15:25+00
-93.2478772219395,45.0126665378085,1102924410006,74,LIC65240,BLWine,Pending,On Sale,2019/04/02 07:40:25+00,2020,2020/04/01 00:00:00+00,El Taco Riendo,2412 CENTRAL AVE NE," Wine, On Sale, Class E Entertainment; Wine, On Sale, Add Strong Beer; Wine, On Sale, No Entertainment",1,Holland,45.01267,-93.24788,-10380306.2099,5623515.7938,2020/03/11 18:15:17+00
-93.2324943578265,44.926681874203,1202824420073,75,LIC65777,BLWine,Pending,On Sale,2020/04/06 08:56:59+00,2021,2021/04/01 00:00:00+00,BUSTERS ON 28TH,4204 28TH AVE S," Wine, On Sale, Class E Entertainment; Wine, On Sale, Add Strong Beer; Wine, On Sale, No Entertainment",12,Standish,44.92668,-93.23249,-10378593.7973,5609986.4235,2021/01/18 18:15:25+00
-93.2367447572546,45.0202518642748,1202924120225,76,LIC65190,BLWine,Pending,On Sale,2020/03/23 08:59:04+00,2021,2021/04/01 00:00:00+00,HAZEL'S NORTHEAST,2859 JOHNSON ST NE," Wine, On Sale, Class E Entertainment; Wine, On Sale, Add Strong Beer; Wine, On Sale, No Entertainment",1,Audubon Park,45.02025,-93.23674,-10379066.9496,5624710.2914,2021/01/18 18:15:25+00
-93.2367447572546,45.0202518642748,1202924120225,77,LIC65186,BLWine,Pending,On Sale,2020/04/06 08:57:11+00,2021,2021/04/01 00:00:00+00,PARKWAY PIZZA,2851 JOHNSON ST NE," Wine, On Sale, Class E Entertainment; Wine, On Sale, Add Strong Beer; Wine, On Sale, No Entertainment",1,Audubon Park,45.02025,-93.23674,-10379066.9496,5624710.2914,2021/01/18 18:15:25+00
-93.2468154743591,45.0202392376908,1202924220087,78,LIC65922,BLWine,Pending,On Sale,2020/03/23 08:59:25+00,2021,2021/04/01 00:00:00+00,Chimborazo Restaurant,2851 CENTRAL AVE NE," Wine, On Sale, Class C2 Entertainment; Wine, On Sale, Add Strong Beer; Wine, On Sale, Limited Entertainment",1,Audubon Park,45.02024,-93.24682,-10380188.0167,5624708.3029,2021/01/18 18:15:25+00
-93.2469026351962,44.9175631477082,1302824220037,79,LIC65745,BLWine,Pending,On Sale,2020/04/14 15:53:31+00,2021,2021/04/01 00:00:00+00,CARBONES PIZZA ON THE PARKWAY,4705 CEDAR AVE S," Wine, On Sale, Class C1 Entertainment; Wine, On Sale, Add Strong Beer; Wine, On Sale, Limited Entertainment",12,Ericsson,44.91756,-93.2469,-10380197.7194,5608552.8139,2021/01/18 18:15:25+00
-93.24531526897,44.9135478897737,1302824230001,80,LIC66180,BLWine,Pending,On Sale,2020/04/14 15:53:48+00,2021,2021/04/01 00:00:00+00,SANDCASTLE,4955 WEST LAKE NOKOMIS PKWY," Wine, On Sale, Class D Entertainment; Wine, On Sale, Add Strong Beer; Wine, On Sale, Limited Entertainment",11,Keewaydin,44.91355,-93.24532,-10380021.0146,5607921.6233,2021/01/18 18:15:25+00
-93.2630290366665,44.9164048807472,1402824220224,81,LIC65627,BLWine,Pending,On Sale,2020/04/14 15:53:46+00,2021,2021/04/01 00:00:00+00,RESTAURANT LEVAIN-PIZZA BIGA,4762 CHICAGO AVE," Wine, On Sale, Class E Entertainment; Wine, On Sale, Add Strong Beer; Wine, On Sale, No Entertainment",8,Field,44.9164,-93.26303,-10381992.9022,5608370.7321,2021/01/18 18:15:25+00
-93.2630292846015,44.9157594656857,1402824230058,82,LIC65804,BLWine,Pending,On Sale,2020/04/14 15:53:56+00,2021,2021/04/01 00:00:00+00,TOWN HALL TAP,4810 CHICAGO AVE," Wine, On Sale, Class E Entertainment; Wine, On Sale, Add Strong Beer; Wine, On Sale, No Entertainment",8,Field,44.91576,-93.26303,-10381992.9298,5608269.2732,2021/01/18 18:15:25+00
-93.2643614682015,45.0005799867641,1402924230091,83,LIC65550,BLWine,Pending,On Sale,2020/04/14 15:54:47+00,2021,2021/04/01 00:00:00+00,THE ANCHOR FISH & CHIPS,302 13TH AVE NE," Wine, On Sale, Class E Entertainment; Wine, On Sale, Add Strong Beer; Wine, On Sale, No Entertainment",3,Sheridan,45.00058,-93.26436,-10382141.2278,5621612.7937,2021/01/18 18:15:25+00
-93.2783511477168,44.9194537740996,1502824210001,84,LIC65833,BLWine,Pending,On Sale,2020/03/23 08:59:17+00,2021,2021/04/01 00:00:00+00,Sun Street Breads,4600 NICOLLET AVE," Wine, On Sale, Class E Entertainment; Wine, On Sale, Add Strong Beer; Wine, On Sale, No Entertainment",11,Tangletown,44.91945,-93.27835,-10383698.5518,5608850.0319,2021/01/18 18:15:25+00
-93.2876087906745,44.906155031824,1502824330001,85,LIC66022,BLWine,Pending,On Sale,2020/03/23 08:59:55+00,2021,2021/04/01 00:00:00+00,PRIMA PASTA SALADS PANINI,5325 LYNDALE AVE S," Wine, On Sale, Class E Entertainment; Wine, On Sale, Add Strong Beer; Wine, On Sale, No Entertainment",11,Tangletown,44.90616,-93.28761,-10384729.1079,5606759.596,2021/01/18 18:15:25+00
-93.2678606353036,44.998555214168,1502924410019,86,LIC65958,BLWine,Pending,On Sale,2020/04/06 08:57:04+00,2021,2021/04/01 00:00:00+00,ELEMENT PIZZA,96 BROADWAY ST NE," Wine, On Sale, Class E Entertainment; Wine, On Sale, Add Strong Beer; Wine, On Sale, No Entertainment",3,St. Anthony West,44.99856,-93.26786,-10382530.7533,5621294.0371,2021/01/18 18:15:25+00
-93.2904460054134,44.9121397139949,1602824410065,87,LIC65195,BLWine,Pending,On Sale,2020/03/23 08:59:02+00,2021,2021/04/01 00:00:00+00,GEORGE AND THE DRAGON,813 50TH ST W," Wine, On Sale, Class E Entertainment; Wine, On Sale, Add Strong Beer; Wine, On Sale, No Entertainment",13,Lynnhurst,44.91214,-93.29045,-10385044.9452,5607700.2713,2021/01/18 18:15:25+00
-93.2900610467714,44.9121312948127,1602824410177,88,LIC65841,BLWine,Pending,On Sale,2020/04/06 08:57:52+00,2021,2021/04/01 00:00:00+00,THE MALT SHOP,809 50TH ST W," Wine, On Sale, Class D Entertainment; Wine, On Sale, Add Strong Beer; Wine, On Sale, Limited Entertainment",13,Lynnhurst,44.91213,-93.29006,-10385002.0918,5607698.9479,2021/01/18 18:15:25+00
-93.3090739849812,44.9126093457751,1702824140164,89,LIC65266,BLWine,Pending,On Sale,2020/04/06 08:57:30+00,2021,2021/04/01 00:00:00+00,BRODERS CUCINA ITALIANA,2308 50TH ST W," Wine, On Sale, Class E Entertainment; Wine, On Sale, Add Strong Beer; Wine, On Sale, No Entertainment",13,Fulton,44.91261,-93.30907,-10387118.6024,5607774.0924,2021/01/18 18:15:25+00
-93.3274010118609,44.9121827348891,1702824320053,90,LIC66132,BLWine,Pending,On Sale,2020/04/06 08:57:14+00,2021,2021/04/01 00:00:00+00,SOTAROL,5005 EWING AVE S," Wine, On Sale, Class E Entertainment; Wine, On Sale, Add Strong Beer; Wine, On Sale, No Entertainment",13,Fulton,44.91218,-93.3274,-10389158.7577,5607707.0337,2021/01/18 18:15:25+00
-93.3286572213441,44.9109751762075,1702824320120,91,LIC66139,BLWine,Pending,On Sale,2020/04/06 08:56:57+00,2021,2021/04/01 00:00:00+00,Arezzo Ristorante,5057 FRANCE AVE S," Wine, On Sale, Class E Entertainment; Wine, On Sale, Add Strong Beer; Wine, On Sale, No Entertainment",13,Fulton,44.91098,-93.32866,-10389298.5983,5607517.221,2021/01/18 18:15:25+00
-93.3090281322742,44.9120853360067,1702824410001,92,LIC65930,BLWine,Pending,On Sale,2020/04/06 08:57:30+00,2021,2021/04/01 00:00:00+00,BRODERS' PASTA BAR,5000 PENN AVE S," Wine, On Sale, Class E Entertainment; Wine, On Sale, Add Strong Beer; Wine, On Sale, No Entertainment",13,Fulton,44.91209,-93.30903,-10387113.4981,5607691.7237,2021/01/18 18:15:25+00
-93.2095512866554,44.9155716621539,1802823110004,93,LIC65559,BLWine,Pending,On Sale,2020/04/14 15:54:36+00,2021,2021/04/01 00:00:00+00,SEA SALT EATERY,4801 MINNEHAHA AVE," Wine, On Sale, Class E Entertainment; Wine, On Sale, Add Strong Beer; Wine, On Sale, No Entertainment",12,Hiawatha,44.91557,-93.20955,-10376039.7863,5608239.7508,2021/01/18 18:15:25+00
-93.2224016607436,44.9122725707388,1802823310195,94,LIC65765,BLWine,Pending,On Sale,2020/04/14 15:53:49+00,2021,2021/04/01 00:00:00+00,SASSY SPOON,5011 34TH AVE S," Wine, On Sale, Class E Entertainment; Wine, On Sale, Add Strong Beer; Wine, On Sale, No Entertainment",12,Minnehaha,44.91227,-93.2224,-10377470.2834,5607721.1549,2021/01/18 18:15:25+00
-93.2235977828158,44.9123146697143,1802823320004,95,LIC65890,BLWine,Pending,On Sale,2020/04/14 15:53:34+00,2021,2021/04/01 00:00:00+00,DOMINGUEZ FAMILY RESTAURANT,3313 50TH ST E," Wine, On Sale, Class E Entertainment; Wine, On Sale, Add Strong Beer; Wine, On Sale, No Entertainment",12,Keewaydin,44.91231,-93.2236,-10377603.4351,5607727.7724,2021/01/18 18:15:25+00
-93.3090557339096,44.9045686891796,2002824110182,96,LIC65560,BLWine,Pending,On Sale,2020/03/23 08:59:09+00,2021,2021/04/01 00:00:00+00,Kwans,5412 PENN AVE S," Wine, On Sale, Class E Entertainment; Wine, On Sale, Add Strong Beer; Wine, On Sale, No Entertainment",13,Armatage,44.90457,-93.30906,-10387116.5707,5606510.2703,2021/01/18 18:15:25+00
-93.3184605370805,44.9018609179285,2002824120211,97,LIC65849,BLWine,Pending,On Sale,2020/04/14 15:53:32+00,2021,2021/04/01 00:00:00+00,CAVE VIN,5555 XERXES AVE S," Wine, On Sale, Class E Entertainment; Wine, On Sale, Add Strong Beer; Wine, On Sale, No Entertainment",13,Armatage,44.90186,-93.31846,-10388163.5086,5606084.7054,2021/01/18 18:15:25+00
-93.2901913752512,44.8940652072171,2102824440096,98,LIC66090,BLWine,Pending,On Sale,2020/04/14 15:53:43+00,2021,2021/04/01 00:00:00+00,Patrick's French Bakery,6010 LYNDALE AVE S," Wine, On Sale, Class E Entertainment; Wine, On Sale, No Entertainment",11,Windom,44.89407,-93.29019,-10385016.5999,5604859.6101,2021/01/18 18:15:25+00
-93.2777715466107,44.9049477479787,2202824120025,99,LIC65534,BLWine,Pending,On Sale,2020/04/06 08:57:51+00,2021,2021/04/01 00:00:00+00,TANGLETOWNS WISE ACRE EATERY,5401 NICOLLET AVE," Wine, On Sale, Class D Entertainment; Wine, On Sale, Add Strong Beer; Wine, On Sale, Limited Entertainment",11,Tangletown,44.90495,-93.27777,-10383634.0309,5606569.8464,2021/01/18 18:15:25+00
-93.2738142521884,44.9792026183029,2202924430024,100,LIC65143,BLWine,Pending,On Sale,2020/04/14 15:53:37+00,2021,2021/04/01 00:00:00+00,ILLUSION THEATER AND SCHOOL,528 HENNEPIN AVE," Wine, On Sale, Class A Entertainment; Wine, On Sale, Add Strong Beer; Wine, On Sale, General Entertainment",3,Downtown West,44.9792,-93.27381,-10383193.5069,5618247.9581,2021/01/18 18:15:25+00
-93.2479208387398,44.900787244846,2302824140154,101,LIC65698,BLWine,Pending,On Sale,2020/04/14 15:54:03+00,2021,2021/04/01 00:00:00+00,Fat Lorenzo's,5600 CEDAR AVE S," Wine, On Sale, Class E Entertainment; Wine, On Sale, Add Strong Beer; Wine, On Sale, No Entertainment",11,Diamond Lake,44.90079,-93.24792,-10380311.0653,5605915.9679,2021/01/18 18:15:25+00
-93.2479967005672,44.8977321769223,2302824410003,102,LIC65356,BLWine,Pending,On Sale,2020/03/23 08:59:23+00,2021,2021/04/01 00:00:00+00,5-8 Club,5800 CEDAR AVE S," Wine, On Sale, Class E Entertainment; Wine, On Sale, Add Strong Beer; Wine, On Sale, No Entertainment",11,Diamond Lake,44.89773,-93.248,-10380319.5102,5605435.8534,2021/01/18 18:15:25+00
-93.2513028933766,44.989471153702,2302924110037,103,LIC65821,BLWine,Pending,On Sale,2020/03/23 08:59:38+00,2021,2021/04/01 00:00:00+00,Brasa Rotisserie,600 HENNEPIN AVE E," Wine, On Sale, Class C1 Entertainment; Wine, On Sale, Add Strong Beer; Wine, On Sale, Limited Entertainment",3,Marcy Holmes,44.98947,-93.2513,-10380687.5539,5619864.0871,2021/01/18 18:15:25+00
-93.2574126006269,44.9878787400594,2302924120100,104,LIC65755,BLWine,Pending,On Sale,2020/03/23 08:59:48+00,2021,2021/04/01 00:00:00+00,Kramarczuk Sausage Co,215 HENNEPIN AVE E," Wine, On Sale, Class C1 Entertainment; Wine, On Sale, Add Strong Beer; Wine, On Sale, Limited Entertainment",3,Nicollet Island - East Bank,44.98788,-93.25741,-10381367.6834,5619613.4437,2021/01/18 18:15:25+00
-93.2549806985577,44.9892921871552,2302924120108,105,LIC65783,BLWine,Pending,On Sale,2020/04/29 09:18:50+00,2021,2021/04/01 00:00:00+00,GORKHA PALACE,23 4TH ST NE," Wine, On Sale, Class C2 Entertainment; Wine, On Sale, Add Strong Beer; Wine, On Sale, Limited Entertainment",3,Nicollet Island - East Bank,44.98929,-93.25498,-10381096.9653,5619835.9177,2021/01/18 18:15:25+00
-93.2569917282382,44.9884253210345,2302924120193,106,LIC65977,BLWine,Pending,On Sale,2020/03/23 08:59:12+00,2021,2021/04/01 00:00:00+00,Pinku Japanese Street Food,20 UNIVERSITY AVE NE #D," Wine, On Sale, Class E Entertainment; Wine, On Sale, Add Strong Beer; Wine, On Sale, No Entertainment",3,Nicollet Island - East Bank,44.98843,-93.25699,-10381320.8321,5619699.4739,2021/01/18 18:15:25+00
-93.2567562528528,44.9874585677428,2302924130952,107,LIC65393,BLWine,Pending,On Sale,2020/04/14 15:54:34+00,2021,2021/04/01 00:00:00+00,Punch Neapolitan Pizza,208 HENNEPIN AVE E," Wine, On Sale, Class E Entertainment; Wine, On Sale, Add Strong Beer; Wine, On Sale, No Entertainment",3,Nicollet Island - East Bank,44.98746,-93.25676,-10381294.6191,5619547.3104,2021/01/18 18:15:25+00
-93.2569095791021,44.9778626207138,2302924430198,108,LIC65749,BLWine,Pending,On Sale,2020/04/06 08:57:07+00,2021,2021/04/01 00:00:00+00,KINDEE,719 2ND ST S," Wine, On Sale, Class E Entertainment; Wine, On Sale, Add Strong Beer; Wine, On Sale, No Entertainment",3,Downtown East,44.97786,-93.25691,-10381311.6873,5618037.0819,2021/01/18 18:15:25+00
-93.2360169880255,44.9809688402234,2402924420037,109,LIC66170,BLWine,Pending,On Sale,2020/04/14 15:54:48+00,2021,2021/04/01 00:00:00+00,TONY'S DINER,1327 4TH ST SE," Wine, On Sale, Class E Entertainment; Wine, On Sale, Add Strong Beer; Wine, On Sale, No Entertainment",3,Marcy Holmes,44.98097,-93.23602,-10378985.9347,5618525.917,2021/01/18 18:15:25+00
-93.2346867986854,44.9804388222204,2402924430049,110,LIC65661,BLWine,Pending,On Sale,2020/03/23 08:59:11+00,2021,2021/04/01 00:00:00+00,PAGODA,1417 4TH ST SE," Wine, On Sale, Class E Entertainment; Wine, On Sale, Add Strong Beer; Wine, On Sale, No Entertainment",3,Marcy Holmes,44.98044,-93.23469,-10378837.8587,5618442.5046,2021/01/18 18:15:25+00
-93.2401687093162,44.9665363397071,2502924310090,111,LIC65993,BLWine,Pending,On Sale,2020/03/23 08:59:24+00,2021,2021/04/01 00:00:00+00,AUGSBURG UNIVERSITY,2211 RIVERSIDE AVE," Wine, On Sale, Class A Entertainment; Wine, On Sale, Add Strong Beer; Wine, On Sale, General Entertainment",2,Cedar Riverside,44.96654,-93.24017,-10379448.1022,5616254.8553,2021/01/18 18:15:25+00
-93.2542141203117,44.9754226992778,2602924120054,112,LIC65808,BLWine,Pending,On Sale,2020/04/14 15:53:33+00,2021,2021/04/01 00:00:00+00,CONEXION AT OPEN BOOK,1011 WASHINGTON AVE S," Wine, On Sale, Class D Entertainment; Wine, On Sale, Add Strong Beer; Wine, On Sale, Limited Entertainment",3,Downtown East,44.97542,-93.25421,-10381011.6302,5617653.1227,2021/01/18 18:15:25+00
-93.2475985160294,44.9693797803089,2602924410048,113,LIC65578,BLWine,Pending,On Sale,2020/03/23 08:59:40+00,2021,2021/04/01 00:00:00+00,CEDAR CULTURAL CENTRE,416 CEDAR AVE S," Wine, On Sale, Class A Entertainment; Wine, On Sale, Add Strong Beer; Wine, On Sale, General Entertainment",6,Cedar Riverside,44.96938,-93.2476,-10380275.1845,5616702.2467,2021/01/18 18:15:25+00
-93.28128743675,44.9747826817895,2702924210188,114,LIC65417,BLWine,Pending,On Sale,2020/04/06 08:57:57+00,2021,2021/04/01 00:00:00+00,Davanni's Pizza & Hot Hoagies,1242 HENNEPIN AVE," Wine, On Sale, Class E Entertainment; Wine, On Sale, Add Strong Beer; Wine, On Sale, No Entertainment",7,Loring Park,44.97478,-93.28129,-10384025.418,5617552.4088,2021/01/18 18:15:25+00
-93.3086456592706,44.9732979150569,2902924140020,115,LIC65149,BLWine,Pending,On Sale,2020/04/06 08:57:34+00,2021,2021/04/01 00:00:00+00,CUPPA JAVA,400 PENN AVE S," Wine, On Sale, Class E Entertainment; Wine, On Sale, Add Strong Beer; Wine, On Sale, No Entertainment",7,Bryn - Mawr,44.9733,-93.30865,-10387070.9214,5617318.7685,2021/01/18 18:15:25+00
-93.226657189552,44.9741791210093,3002923220012,116,LIC65436,BLWine,Pending,On Sale,2020/04/14 15:53:41+00,2021,2021/04/01 00:00:00+00,MY BURGER,213 OAK ST SE," Wine, On Sale, Class E Entertainment; Wine, On Sale, Add Strong Beer; Wine, On Sale, No Entertainment",2,Prospect Park - East River Road,44.97418,-93.22666,-10377944.0067,5617457.4328,2021/01/18 18:15:25+00
-93.2268031352429,44.9734085727963,3002923230004,117,LIC66202,BLWine,Pending,On Sale,2020/04/14 15:54:35+00,2021,2021/04/01 00:00:00+00,Punch Neapolitan Pizza,802 WASHINGTON AVE SE," Wine, On Sale, Class E Entertainment; Wine, On Sale, Add Strong Beer; Wine, On Sale, No Entertainment",2,Prospect Park - East River Road,44.97341,-93.2268,-10377960.2533,5617336.1812,2021/01/18 18:15:25+00
-93.2150276537827,44.9485851939658,3102923430042,118,LIC65473,BLWine,Pending,On Sale,2020/04/14 15:53:34+00,2021,2021/04/01 00:00:00+00,EL NORTENO MARKET & DELI,4000 LAKE ST E," Wine, On Sale, Class D Entertainment; Wine, On Sale, Add Strong Beer; Wine, On Sale, Limited Entertainment",2,Cooper,44.94859,-93.21503,-10376649.4127,5613430.9057,2021/01/18 18:15:25+00
-93.3208342067597,44.9491316440658,3202924340510,119,LIC65666,BLWine,Pending,On Sale,2020/04/14 15:54:35+00,2021,2021/04/01 00:00:00+00,PUNCH NEAPOLITAN PIZZA,3226 LAKE ST W," Wine, On Sale, Class E Entertainment; Wine, On Sale, Add Strong Beer; Wine, On Sale, No Entertainment",7,Cedar - Isles - Dean,44.94913,-93.32083,-10388427.7443,5613516.8564,2021/01/18 18:15:25+00
-93.296917360024,44.9561276627331,3302924130097,120,LIC65265,BLWine,Pending,On Sale,2020/03/23 08:59:07+00,2021,2021/04/01 00:00:00+00,INDIA PALACE,2546 HENNEPIN AVE," Wine, On Sale, Class E Entertainment; Wine, On Sale, Add Strong Beer; Wine, On Sale, No Entertainment",7,East Isles,44.95613,-93.29692,-10385765.3331,5614617.3269,2021/01/18 18:15:25+00
-93.2965498376817,44.9552422609864,3302924420156,121,LIC65693,BLWine,Pending,On Sale,2020/04/06 08:57:13+00,2021,2021/04/01 00:00:00+00,PHOENIX THEATER AND TWIG CAFE,2605 HENNEPIN AVE," Wine, On Sale, Class A Entertainment; Wine, On Sale, Add Strong Beer; Wine, On Sale, General Entertainment",10,Lowry Hill East,44.95524,-93.29655,-10385724.4207,5614478.0462,2021/01/18 18:15:25+00
-93.2774657942239,44.956491128735,3402924130084,122,LIC65816,BLWine,Pending,On Sale,2020/03/23 08:59:47+00,2021,2021/04/01 00:00:00+00,KHUNNAI THAI CUISINE,2523 NICOLLET AVE," Wine, On Sale, Class E Entertainment; Wine, On Sale, Add Strong Beer; Wine, On Sale, No Entertainment",10,Whittier,44.95649,-93.27747,-10383599.9947,5614674.5036,2021/01/18 18:15:25+00
-93.2783796018534,44.9534539519948,3402924310204,123,LIC66157,BLWine,Pending,On Sale,2020/03/09 08:36:53+00,2021,2021/04/01 00:00:00+00,Ichiddo Ramen,2710 NICOLLET AVE," Wine, On Sale, Class E Entertainment; Wine, On Sale, Add Strong Beer; Wine, On Sale, No Entertainment",10,Whittier,44.95345,-93.27838,-10383701.7193,5614196.7376,2021/01/18 18:15:25+00
-93.2783253337288,44.9544589139179,3402924310205,124,LIC65914,BLWine,Pending,On Sale,2020/04/06 08:57:18+00,2021,2021/04/01 00:00:00+00,Christo's Greek Restaurant,2632 NICOLLET AVE," Wine, On Sale, Class E Entertainment; Wine, On Sale, Add Strong Beer; Wine, On Sale, No Entertainment",10,Whittier,44.95446,-93.27833,-10383695.6782,5614354.8213,2021/01/18 18:15:25+00
-93.2876742616891,44.9486618708719,3402924330107,125,LIC65354,BLWine,Pending,On Sale,2020/04/06 08:57:58+00,2021,2021/04/01 00:00:00+00,JUNGLE THEATER,2951 LYNDALE AVE S," Wine, On Sale, Class A Entertainment; Wine, On Sale, Add Strong Beer; Wine, On Sale, General Entertainment",10,Whittier,44.94866,-93.28767,-10384736.3961,5613442.9661,2021/01/18 18:15:25+00
-93.2774928460904,44.9530879117783,3402924420169,126,LIC65569,BLWine,Pending,On Sale,2020/03/23 08:59:55+00,2021,2021/04/01 00:00:00+00,QUANG RESTAURANT,2719 NICOLLET AVE," Wine, On Sale, Class E Entertainment; Wine, On Sale, Add Strong Beer; Wine, On Sale, No Entertainment",10,Whittier,44.95309,-93.27749,-10383603.0061,5614139.159,2021/01/18 18:15:25+00
-93.2577656439234,44.9621849839445,3502924210198,127,LIC66192,BLWine,Pending,On Sale,2020/03/23 08:59:10+00,2021,2021/04/01 00:00:00+00,MARIAS CAFE,1113 FRANKLIN AVE E," Wine, On Sale, Class D Entertainment; Wine, On Sale, Add Strong Beer; Wine, On Sale, Limited Entertainment",6,Ventura Village,44.96218,-93.25777,-10381406.984,5615570.2491,2021/01/18 18:15:25+00
-93.2342421793321,44.9624895957313,3602924120029,128,LIC65607,BLWine,Pending,On Sale,2020/03/23 08:59:15+00,2021,2021/04/01 00:00:00+00,Seward Co-op Creamery Cafe,2601 FRANKLIN AVE E," Wine, On Sale, Add Strong Beer; Wine, On Sale, Class C2 Entertainment; Wine, On Sale, Limited Entertainment",6,Seward,44.96249,-93.23424,-10378788.3639,5615618.1725,2021/01/18 18:15:25+00
-93.2412091416715,44.9625333581894,3602924210115,129,LIC65264,BLWine,Pending,On Sale,2020/04/14 15:54:36+00,2021,2021/04/01 00:00:00+00,SEWARD COMMUNITY CAFE,2129 FRANKLIN AVE E," Wine, On Sale, Class C1 Entertainment; Wine, On Sale, Add Strong Beer; Wine, On Sale, Limited Entertainment",6,Seward,44.96253,-93.24121,-10379563.9226,5615625.0575,2021/01/18 18:15:25+00
-93.2352141331133,44.952534152204,3602924420050,130,LIC65315,BLWine,Pending,On Sale,2020/03/23 08:59:28+00,2021,2021/04/01 00:00:00+00,KATAR RIVER RESTAURANT & BAKERY,2751 MINNEHAHA AVE," Wine, On Sale, Class C2 Entertainment; Wine, On Sale, Add Strong Beer; Wine, On Sale, Limited Entertainment",9,Longfellow,44.95253,-93.23521,-10378896.5613,5614052.0526,2021/01/18 18:15:25+00
-93.2295416700478,44.9486291348733,3602924440191,131,LIC65595,BLWine,Pending,On Sale,2020/03/23 08:59:05+00,2021,2021/04/01 00:00:00+00,HIMALAYAN RESTAURANT,2910 LAKE ST E," Wine, On Sale, Class E Entertainment; Wine, On Sale, Add Strong Beer; Wine, On Sale, No Entertainment",2,Longfellow,44.94863,-93.22954,-10378265.1056,5613437.8171,2021/01/18 18:15:25+00
-93.295404874665,45.0313710903096,0402924120152,132,LIC74557,BLBeer,Pending,On Sale,2016/04/01 00:00:00+00,2021,2021/04/01 00:00:00+00,T SHOPPE BAR,4154 FREMONT AVE N," Beer, On Sale, Class E Entertainment; Beer, On Sale, No Entertainment",4,Webber - Camden,45.03137,-93.2954,-10385596.964,5626461.5751,2021/01/17 18:15:24+00
-93.223344159665,44.9015479212695,1902823230006,133,LIC74696,BLBeer,Pending,On Sale,2016/04/01 00:00:00+00,2021,2021/04/01 00:00:00+00,Wold Chamberlain Post,5600 34TH AVE S," Beer, On Sale, Bottle Club",11,Wenonah,44.90155,-93.22334,-10377575.2019,5606035.5148,2021/01/17 18:15:24+00
-93.2262580213588,44.9738530140494,3002923220014,134,LIC74504,BLBeer,Pending,On Sale,2016/04/01 00:00:00+00,2021,2021/04/01 00:00:00+00,BONA RESTAURANT,815 WASHINGTON AVE SE," Beer, On Sale, Class E Entertainment; Beer, On Sale, No Entertainment",2,Prospect Park - East River Road,44.97385,-93.22626,-10377899.5715,5617406.1172,2021/01/17 18:15:24+00
-93.2351679624027,44.9806478958972,2402924420019,135,LIC385932,BLWine,Pending,On Sale,2020/03/23 08:58:54+00,2021,2021/04/01 23:59:59+00,Bonchon Dinky,406 14TH AVE SE," Wine, On Sale, No Entertainment; Wine, On Sale, Add Strong Beer",3,Marcy Holmes,44.98065,-93.23517,-10378891.4216,5618475.4078,2021/01/19 18:15:17+00
-93.219604216219,44.9289259627978,0702823240145,136,LIC355408,BLWine,Pending,On Sale,2020/04/14 15:53:26+00,2021,2021/04/01 23:59:59+00,ALL SQUARE,4047 MINNEHAHA AVE," Wine, On Sale, Add Strong Beer; Wine, On Sale, Class E Entertainment; Wine, On Sale, No Entertainment",12,Hiawatha,44.92893,-93.2196,-10377158.8733,5610339.265,2021/01/19 18:15:17+00
-93.2535018506145,44.9486180768534,3502924430153,137,LIC359288,BLWine,Pending,On Sale,2020/04/06 08:57:20+00,2021,2021/04/01 23:59:00+00,In the Heart of the Beast Puppet and Mask Theatre,1500 LAKE ST E," Wine, On Sale, Class A Entertainment; Wine, On Sale, Add Strong Beer; Wine, On Sale, General Entertainment",9,Midtown Phillips,44.94862,-93.2535,-10380932.3407,5613436.0778,2021/01/19 18:15:17+00
-93.2235728069559,44.9345205736859,0602823330027,138,LIC79745,BLLiquor,Pending,On Sale,2019/08/22 08:49:17+00,2020,2020/04/01 00:00:00+00,American Legion Dept of Minnesota,3751 MINNEHAHA AVE," Liquor, On Sale, Bottle Club",12,Howe,44.93452,-93.22357,-10377600.6548,5611218.9743,2020/08/19 18:15:18+00
-93.2130077846798,45.0024080859046,1802923130025,139,LIC79766,BLLiquor,Pending,On Sale,2019/09/27 10:02:21+00,2020,2020/04/01 00:00:00+00,Delta Hotel Minneapolis,1330 INDUSTRIAL BLVD," Liquor, On Sale, Class A Entertainment; Liquor, On Sale, General Entertainment",1,Mid - City Industrial,45.00241,-93.21301,-10376424.5619,5621900.598,2020/04/22 18:15:17+00
-93.223344159665,44.9015479212695,1902823230006,140,LIC79515,BLLiquor,Pending,On Sale,2019/08/22 08:47:47+00,2020,2020/04/01 00:00:00+00,American Legion,5600 34TH AVE S," Liquor, On Sale, Bottle Club",11,Wenonah,44.90155,-93.22334,-10377575.2019,5606035.5148,2020/03/27 18:15:19+00
-93.2475266579931,44.9687679081313,2602924410058,141,LIC366256,BLLiquor,Approved,On Sale,2020/11/23 14:48:31+00,2021,2021/04/01 23:59:59+00,PALMERS BAR,500 CEDAR AVE S," Liquor, On Sale, Class B Entertainment; Liquor, On Sale, General Entertainment",6,Cedar Riverside,44.96877,-93.24753,-10380267.1853,5616605.9719,2020/11/24 18:15:17+00
-93.323691127841,44.9230851889671,0802824340116,142,LIC65910,BLWine,Pending,On Sale,2020/04/14 15:53:55+00,2021,2021/04/01 00:00:00+00,The Turtle Bread Company,3421 44TH ST W," Wine, On Sale, Class D Entertainment; Wine, On Sale, Add Strong Beer; Wine, On Sale, Limited Entertainment",13,Linden Hills,44.92309,-93.32369,-10388745.7753,5609420.9399,2021/01/18 18:15:25+00
-93.234602987666,44.979012209147,2402924430079,143,LIC359487,BLWine,Pending,On Sale,2020/04/14 15:53:37+00,2021,2021/04/01 23:59:00+00,ICHIDDO RAMEN,1501 UNIVERSITY AVE SE #150," Wine, On Sale, Add Strong Beer; Wine, On Sale, Class E Entertainment; Wine, On Sale, No Entertainment",2,University of Minnesota,44.97901,-93.2346,-10378828.5289,5618217.993,2021/01/19 18:15:17+00
-93.2935264003878,44.9607371078137,3302924120188,144,LIC359647,BLWine,Pending,On Sale,2020/04/14 15:54:46+00,2021,2021/04/01 23:59:00+00,TAO NATURAL FOODS,2200 DUPONT AVE S," Wine, On Sale, Add Strong Beer; Wine, On Sale, Class E Entertainment; Wine, On Sale, No Entertainment",7,East Isles,44.96074,-93.29353,-10385387.8532,5615342.4638,2021/01/19 18:15:17+00
-93.2874160283842,44.9506686949846,3402924330009,145,LIC360162,BLWine,Pending,On Sale,2019/04/02 07:40:20+00,2020,2020/04/01 23:59:59+00,KYOTO SUSHI,2841 LYNDALE AVE S," Wine, On Sale, Add Strong Beer; Wine, On Sale, Class E Entertainment; Wine, On Sale, No Entertainment",10,Whittier,44.95067,-93.28742,-10384707.6497,5613758.6223,2020/01/21 18:15:18+00
-93.3287374364074,44.921115041881,0802824330143,146,LIC361326,BLWine,Pending,On Sale,2020/03/23 08:59:44+00,2021,2021/04/01 23:59:00+00,GREAT WALL CHINSESE RESTAURANT,4515 FRANCE AVE S," Wine, On Sale, Class E Entertainment; Wine, On Sale, Add Strong Beer; Wine, On Sale, No Entertainment",13,Linden Hills,44.92112,-93.32874,-10389307.5278,5609111.2014,2021/01/19 18:15:17+00
-93.2777308089108,44.9036293260116,2202824120149,147,LIC388064,BLWine,Pending,On Sale,2020/03/23 08:56:52+00,2021,2021/04/01 23:59:59+00,Orale Mexican Eats,5447 NICOLLET AVE," Wine, On Sale, Add Strong Beer; Wine, On Sale, No Entertainment",11,Windom,44.90363,-93.27773,-10383629.496,5606362.6337,2021/01/19 18:15:17+00
-93.2469372409959,45.0126318067618,1202924320071,148,LIC364719,BLWine,Pending,On Sale,2020/04/06 08:57:41+00,2021,2021/04/01 23:59:59+00,KHAO HOM THAI RESTAURANT,2411 CENTRAL AVE NE," Wine, On Sale, Class E Entertainment; Wine, On Sale, Add Strong Beer; Wine, On Sale, No Entertainment",1,Windom Park,45.01263,-93.24694,-10380201.5717,5623510.3249,2021/01/19 18:15:17+00
-93.2978497511018,44.9521257089453,3302924420019,149,LIC74652,BLBeer,Pending,On Sale,2016/04/01 00:00:00+00,2021,2021/04/01 00:00:00+00,Konh Do Restaurant,2755 HENNEPIN AVE," Beer, On Sale, Class E Entertainment; Beer, On Sale, No Entertainment",10,Lowry Hill East,44.95213,-93.29785,-10385869.1264,5613987.805,2021/01/17 18:15:24+00
-93.246937534745,44.927132019933,1202824230131,150,LIC365874,BLWine,Pending,On Sale,2020/04/14 15:54:05+00,2021,2021/04/01 23:59:00+00,HAMBURGUESAS EL GORDO,4157 CEDAR AVE S," Wine, On Sale, Class D Entertainment; Wine, On Sale, Add Strong Beer; Wine, On Sale, Limited Entertainment",12,Standish,44.92713,-93.24694,-10380201.6044,5610057.1995,2021/01/19 18:15:17+00
-93.2753267671919,44.9828597218965,2202924420046,151,LIC382588,BLWine,Pending,On Sale,2020/04/14 15:54:49+00,2021,2021/04/01 23:59:59+00,Underground Music Cafe,408 3RD AVE N," Wine, On Sale, Limited Entertainment; Wine, On Sale, Add Strong Beer",3,North Loop,44.98286,-93.27533,-10383361.8793,5618823.5037,2021/01/19 18:15:17+00
-93.2782407771077,44.9857636098372,2202924240106,152,LIC361973,BLWine,Pending,On Sale,2020/04/14 15:53:35+00,2021,2021/04/01 23:59:00+00,First Draft Taproom & Kitchen,324 6TH AVE N," Wine, On Sale, Class B Entertainment; Wine, On Sale, Add Strong Beer; Wine, On Sale, General Entertainment",3,North Loop,44.98576,-93.27824,-10383686.2654,5619280.5363,2021/01/19 18:15:17+00
0,0,,153,LIC365927,BLWine,Pending,On Sale,2020/03/23 08:59:43+00,2021,2021/04/01 23:59:59+00,GRAY FOX,801 MARQUETTE AVE #TCF ATRIUM," Wine, On Sale, Class E Entertainment; Wine, On Sale, Add Strong Beer; Wine, On Sale, No Entertainment",,,0,0,0,0,2021/01/19 18:15:17+00
-93.2740373568741,44.958214974113,3402924130052,154,LIC369251,BLWine,Pending,On Sale,2020/04/14 15:53:52+00,2021,2021/04/01 23:59:59+00,THE CHILDREN'S THEATRE COMPANY,2400 3RD AVE S," Wine, On Sale, Class A Entertainment; Wine, On Sale, Add Strong Beer; Wine, On Sale, General Entertainment",10,Whittier,44.95821,-93.27404,-10383218.3428,5614945.686,2021/01/19 18:15:17+00
-93.2915242873849,44.9630217010992,2802924440267,155,LIC382428,BLWine,Pending,On Sale,2020/04/06 08:57:42+00,2021,2021/04/01 23:59:59+00,LOWRY HILL MEATS,1934 HENNEPIN AVE #102," Wine, On Sale, No Entertainment; Wine, On Sale, Add Strong Beer",7,Lowry Hill,44.96302,-93.29152,-10385164.979,5615701.8872,2021/01/19 18:15:17+00
-93.2612413452336,44.9783732541519,2302924340071,156,LIC79634,BLLiquor,Pending,On Sale,2019/10/01 08:00:00+00,2020,2020/04/01 00:00:00+00,HOP21,501 WASHINGTON AVE S," Liquor, On Sale, Class C1 Entertainment; Liquor, On Sale, Limited Entertainment",3,Downtown West,44.97837,-93.26124,-10381793.8973,5618117.44,2020/01/19 18:15:19+00
-93.2860597627481,44.9799643807721,2202924330030,157,LIC381882,BLWine,Pending,On Sale,2020/01/22 08:44:45+00,2020,2020/04/01 23:59:59+00,Unleashed Hounds and Hops,200 EAST LYNDALE AVE N," Wine, On Sale, No Entertainment; Wine, On Sale, Add Strong Beer",5,North Loop,44.97996,-93.28606,-10384556.6709,5618367.8393,2020/01/23 18:15:23+00
0,0,040282412AAAA,158,LIC374691,BLWine,Pending,On Sale,2020/04/06 08:56:58+00,2021,2021/04/01 23:59:59+00,BLACK WALNUT BAKERY,3157 HENNEPIN AVE," Wine, On Sale, Class E Entertainment; Wine, On Sale, Add Strong Beer; Wine, On Sale, No Entertainment",10,CARAG,0,0,0,0,2021/01/19 18:15:17+00
-93.2526843603497,44.9393685678124,0202824420024,159,LIC383185,BLWine,Pending,On Sale,2020/04/29 09:18:50+00,2021,2021/04/01 23:59:00+00,Reverie Cafe + Bar,1517 35TH ST E," Wine, On Sale, Limited Entertainment; Wine, On Sale, Add Strong Beer",9,Powderhorn Park,44.93937,-93.25268,-10380841.3381,5611981.3532,2021/01/19 18:15:17+00
-93.2876666727216,44.9496602628166,3402924330093,160,LIC65824,BLWine,Pending,On Sale,2020/03/23 08:59:42+00,2021,2021/04/01 00:00:00+00,GALACTIC PIZZA,2917 LYNDALE AVE S," Wine, On Sale, Add Strong Beer; Wine, On Sale, Class C2 Entertainment; Wine, On Sale, Limited Entertainment",10,Whittier,44.94966,-93.28767,-10384735.5513,5613600.0032,2021/01/18 18:15:25+00
-93.2978875369376,44.9485362901643,3302924430092,161,LIC374178,BLWine,Pending,On Sale,2020/03/23 08:58:54+00,2021,2021/04/01 23:59:00+00,Bonchon,1414 LAKE ST W," Wine, On Sale, Add Strong Beer; Wine, On Sale, Class E Entertainment; Wine, On Sale, No Entertainment",10,Lowry Hill East,44.94854,-93.29789,-10385873.3327,5613423.2137,2021/01/19 18:15:17+00
-93.2635574293099,45.012969472881,1102924320035,162,LIC378395,BLWine,Pending,On Sale,2020/04/14 15:54:32+00,2021,2021/04/01 23:59:59+00,Olive & Lamb Eatery,2424 UNIVERSITY AVE NE," Wine, On Sale, No Entertainment; Wine, On Sale, Add Strong Beer",3,Bottineau,45.01297,-93.26356,-10382051.7226,5623563.4954,2021/01/19 18:15:17+00
-93.2978683049057,44.9510686442245,3302924430041,163,LIC379980,BLWine,Pending,On Sale,2020/03/23 08:59:36+00,2021,2021/04/01 23:59:59+00,Troubadour Wine Bar,2827 HENNEPIN AVE," Wine, On Sale, Limited Entertainment; Wine, On Sale, Add Strong Beer",10,Lowry Hill East,44.95107,-93.29787,-10385871.1918,5613821.5322,2021/01/19 18:15:17+00
-93.2602604487238,44.9624289638551,3502924210067,164,LIC371140,BLWine,Pending,On Sale,2020/04/06 08:57:45+00,2021,2021/04/01 23:59:59+00,NORWAY HOUSE,913 FRANKLIN AVE E," Wine, On Sale, Class B Entertainment; Wine, On Sale, Add Strong Beer; Wine, On Sale, General Entertainment",6,Ventura Village,44.96243,-93.26026,-10381684.7044,5615608.6335,2021/01/19 18:15:17+00
-93.3208342067597,44.9491316440658,3202924340510,165,LIC380398,BLWine,Pending,On Sale,2020/03/23 08:59:14+00,2021,2021/04/01 23:59:59+00,Seed Cafe,3252 LAKE ST W #B," Wine, On Sale, No Entertainment; Wine, On Sale, Add Strong Beer",7,Cedar - Isles - Dean,44.94913,-93.32083,-10388427.7443,5613516.8564,2021/01/19 18:15:17+00
-93.2481484071541,44.9729686420871,2602924140038,166,LIC76519,BLLiquor,Pending,On Sale,2017/04/19 13:11:18+00,2018,2018/10/01 00:00:00+00,JEWEL OF INDIA,1427 WASHINGTON AVE S," Liquor, On Sale, Class D Entertainment; Liquor, On Sale, Limited Entertainment",6,Cedar Riverside,44.97297,-93.24815,-10380336.3981,5617266.9555,2019/11/07 18:15:59+00
-93.2813653404481,44.9986668261733,1502924310069,167,LIC381036,BLWine,Pending,On Sale,2020/04/14 15:53:26+00,2021,2021/04/01 23:59:59+00,Bar Brava,1914 WASHINGTON AVE N," Wine, On Sale, No Entertainment; Wine, On Sale, Add Strong Beer",5,Near - North,44.99867,-93.28137,-10384034.0902,5621311.6077,2021/01/19 18:15:17+00
-93.2840823255676,44.9197626582385,1002824330051,168,LIC365467,BLWine,Pending,On Sale,2020/04/14 15:53:51+00,2021,2021/04/01 23:59:59+00,TAP SOCIETY,4555 GRAND AVE S," Wine, On Sale, Add Strong Beer; Wine, On Sale, Class C2 Entertainment; Wine, On Sale, Limited Entertainment",8,King Field,44.91976,-93.28408,-10384336.5436,5608898.5913,2021/01/19 18:15:17+00
-93.2367976689231,44.9339724690642,1202824120119,169,LIC372805,BLWine,Pending,On Sale,2020/04/06 08:57:49+00,2021,2021/04/01 23:59:59+00,STANDISH CAFE,2403 38TH ST E," Wine, On Sale, Class E Entertainment; Wine, On Sale, Add Strong Beer; Wine, On Sale, No Entertainment",12,Standish,44.93397,-93.2368,-10379072.8397,5611132.7853,2021/01/19 18:15:17+00
-93.2791407722414,44.9849176481021,2202924240027,170,LIC107867,BLBrewery,Pending,On Sale,2020/05/17 21:16:49+00,2021,2021/01/01 00:00:00+00,Fulton Beer,414 6TH AVE N," Liquor, On Sale, Taproom Class C1 Entertainment; Liquor, On Sale, Taproom Limited Entertainment",5,North Loop,44.98492,-93.27914,-10383786.4524,5619147.391,2021/01/28 18:15:17+00
-93.2791407722414,44.9849176481021,2202924240027,171,LIC107867,BLBrewery,Pending,On Sale,2020/05/17 21:16:49+00,2021,2021/01/01 00:00:00+00,Fulton Beer,414 6TH AVE N," Liquor, On Sale, Taproom Class C1 Entertainment; Liquor, On Sale, Taproom Limited Entertainment",5,North Loop,44.98492,-93.27914,-10383786.4524,5619147.391,2021/01/28 18:15:17+00
-93.3128222387419,44.9790460322025,2002924440056,172,LIC344420,BLBrewery,Pending,On Sale,2020/05/18 21:16:59+00,2021,2021/01/01 23:59:00+00,Utepils Brewing Co,225 THOMAS AVE N," Liquor, On Sale, Taproom Class C2 Entertainment; Liquor, On Sale, Taproom Limited Entertainment",5,Harrison,44.97905,-93.31282,-10387535.8561,5618223.3158,2021/01/28 18:15:17+00
-93.3128222387419,44.9790460322025,2002924440056,173,LIC344420,BLBrewery,Pending,On Sale,2020/05/18 21:16:59+00,2021,2021/01/01 23:59:00+00,Utepils Brewing Co,225 THOMAS AVE N," Liquor, On Sale, Taproom Class C2 Entertainment; Liquor, On Sale, Taproom Limited Entertainment",5,Harrison,44.97905,-93.31282,-10387535.8561,5618223.3158,2021/01/28 18:15:17+00
-93.3128222387419,44.9790460322025,2002924440056,174,LIC344403,BLBrewery,Pending,On Sale,2020/05/18 21:16:59+00,2021,2021/01/01 23:59:00+00,Utepils Brewing Co,225 THOMAS AVE N, BL Sunday Sales Exemption,5,Harrison,44.97905,-93.31282,-10387535.8561,5618223.3158,2021/01/28 18:15:17+00
-93.3128222387419,44.9790460322025,2002924440056,175,LIC344403,BLBrewery,Pending,On Sale,2020/05/18 21:16:59+00,2021,2021/01/01 23:59:00+00,Utepils Brewing Co,225 THOMAS AVE N, BL Sunday Sales Exemption,5,Harrison,44.97905,-93.31282,-10387535.8561,5618223.3158,2021/01/28 18:15:17+00
-93.2347289368587,44.9730178758658,2502924130003,176,LIC79748,BLLiquor,Pending,On Sale,2020/05/17 01:01:55+00,2021,2021/01/01 00:00:00+00,CAMPUS CLUB OF THE UNIV OF MN,300 WASHINGTON AVE SE," Liquor, On Sale, Class B Entertainment; Liquor, On Sale, General Entertainment",2,University of Minnesota,44.97302,-93.23473,-10378842.5495,5617274.7027,2021/01/12 18:15:24+00
-93.2705116140127,45.0255383668562,0302924410027,177,LIC366730,BLBrewery,Pending,On Sale,2020/05/18 21:17:00+00,2021,2021/01/01 23:59:00+00,Broken Clock Brewing,3134 CALIFORNIA ST NE #122," Liquor, On Sale, Taproom Class E Entertainment; Liquor, On Sale, Taproom No Entertainment",1,Marshall Terrace,45.02554,-93.27051,-10382825.8589,5625542.8758,2021/01/12 18:15:24+00
-93.2705116140127,45.0255383668562,0302924410027,178,LIC366730,BLBrewery,Pending,On Sale,2020/05/18 21:17:00+00,2021,2021/01/01 23:59:00+00,Broken Clock Brewing,3134 CALIFORNIA ST NE #122," Liquor, On Sale, Taproom Class E Entertainment; Liquor, On Sale, Taproom No Entertainment",1,Marshall Terrace,45.02554,-93.27051,-10382825.8589,5625542.8758,2021/01/12 18:15:24+00
-93.2842520927833,44.9794845030881,2202924330052,179,LIC351423,BLLiquor,Pending,On Sale,2020/05/18 01:02:06+00,2021,2021/01/01 23:59:00+00,Parallel,145 HOLDEN ST N," Liquor, On Sale, Class B Entertainment; Liquor, On Sale, General Entertainment",5,North Loop,44.97948,-93.28425,-10384355.442,5618292.3191,2021/01/21 18:15:25+00
-93.2729955150621,44.9779950159759,2202924430120,180,LIC75353,BLLiquor,Pending,On Sale,2020/05/17 01:00:45+00,2021,2021/01/01 00:00:00+00,Fogo de Chao,645 HENNEPIN AVE," Liquor, On Sale, Class E Entertainment; Liquor, On Sale, No Entertainment",3,Downtown West,44.978,-93.273,-10383102.3655,5618057.9168,2021/01/21 18:15:25+00
-93.2520612098169,44.9948901788539,1402924440033,181,LIC78969,BLLiquor,Pending,On Sale,2020/05/17 01:01:41+00,2021,2021/01/01 00:00:00+00,SPRING STREET TAVERN AND CLUB UNDERGROUN,355 MONROE ST NE," Liquor, On Sale, Class B Entertainment; Liquor, On Sale, General Entertainment",3,St. Anthony East,44.99489,-93.25206,-10380771.9693,5620717.0853,2021/01/21 18:15:25+00
-93.2732486576142,44.9804737399005,2202924430097,182,LIC79051,BLLiquor,Pending,On Sale,2020/05/17 01:01:42+00,2021,2021/01/01 00:00:00+00,Last Call,26 5TH ST N," Liquor, On Sale, Class A Entertainment; Liquor, On Sale, General Entertainment",3,Downtown West,44.98047,-93.27325,-10383130.5452,5618447.9998,2021/01/21 18:15:25+00
-93.2717990624099,44.9744751427683,2702924110082,183,LIC79327,BLLiquor,Pending,On Sale,2020/05/17 01:01:48+00,2021,2021/01/01 00:00:00+00,W Minneapolis - The Foshay,821 MARQUETTE AVE," Liquor, On Sale, Class B Entertainment; Liquor, On Sale, General Entertainment",7,Downtown West,44.97448,-93.2718,-10382969.177,5617504.0145,2021/01/21 18:15:25+00
-93.2225862555513,44.9710064980988,3002923240158,184,LIC362746,BLLiquor,Pending,On Sale,2020/05/18 01:02:10+00,2021,2021/01/01 23:59:00+00,Doubletree by Hilton Hotel Minneapolis - University Area,511 HURON BLVD SE," Liquor, On Sale, Class B Entertainment; Liquor, On Sale, General Entertainment",2,Prospect Park - East River Road,44.97101,-93.22259,-10377490.8324,5616958.207,2021/01/21 18:15:25+00
-93.2327187659676,44.9479196511055,0102824120095,185,LIC65902,BLWine,Pending,On Sale,2019/04/02 07:40:24+00,2020,2020/04/01 00:00:00+00,GANDHI MAHAL,3009 27TH AVE S," Wine, On Sale, Class C2 Entertainment; Wine, On Sale, Add Strong Beer; Wine, On Sale, Limited Entertainment",2,Longfellow,44.94792,-93.23272,-10378618.7783,5613326.2241,2020/10/21 18:15:17+00
-93.232716892082,44.9481115978061,0102824120096,186,LIC79453,BLLiquor,Pending,On Sale,2020/01/15 11:23:40+00,2020,2020/07/01 00:00:00+00,El Nuevo Rodeo Nightclub,2709 LAKE ST E," Liquor, On Sale, Class A Entertainment; Liquor, On Sale, General Entertainment",2,Longfellow,44.94811,-93.23272,-10378618.5697,5613356.4148,2020/10/21 18:15:17+00
-93.2335324860031,44.9553932518152,3602924420005,187,LIC80195,BLLiquor,Pending,On Sale,2019/12/23 15:04:29+00,2020,2020/07/01 00:00:00+00,HEXAGON,2600 27TH AVE S," Liquor, On Sale, Class B Entertainment; Liquor, On Sale, General Entertainment",2,Seward,44.95539,-93.23353,-10378709.3612,5614501.7981,2020/10/21 18:15:17+00
-93.223300691985,44.9050367139213,1902823220159,188,LIC379860,BLLiquor,Approved,On Sale,2020/10/20 15:10:52+00,2021,2021/10/01 23:59:59+00,Berry Sweet Kitchen,5406 34TH AVE S," Liquor, On Sale, No Entertainment",11,Wenonah,44.90504,-93.2233,-10377570.3631,5606583.8291,2020/10/21 18:15:17+00
-93.2711485527868,44.985738739832,2202924140018,189,LIC389587,BLDistill,Approved,On Sale,2020/06/22 08:36:37+00,2021,2021/10/01 23:59:59+00,StilHeart,124 3RD AVE N, BL Sunday Sales Exemption,3,North Loop,44.98574,-93.27115,-10382896.7626,5619276.622,2020/06/23 18:15:18+00
-93.2711485527868,44.985738739832,2202924140018,190,LIC389587,BLDistill,Approved,On Sale,2020/06/22 08:36:37+00,2021,2021/10/01 23:59:59+00,StilHeart,124 3RD AVE N, BL Sunday Sales Exemption,3,North Loop,44.98574,-93.27115,-10382896.7626,5619276.622,2020/06/23 18:15:18+00
-93.2224016607436,44.9122725707388,1802823310195,191,LIC388681,BLLiquor,Approved,On Sale,2020/12/08 13:48:45+00,2021,2021/10/01 23:59:59+00,Casa Maria,5001 34TH AVE S," Liquor, On Sale, No Entertainment",12,Minnehaha,44.91227,-93.2224,-10377470.2834,5607721.1549,2020/12/09 18:15:18+00
-93.2338754376258,44.9470991082337,0102824120042,192,LIC391326,BLBrewery,Approved,On Sale,2020/12/08 14:09:08+00,2021,2021/10/01 23:59:59+00,Arbeiter Brewing Company,3036 MINNEHAHA AVE," Liquor, On Sale, Taproom No Entertainment",9,Longfellow,44.9471,-93.23388,-10378747.5384,5613197.1646,2020/12/09 18:15:18+00
-93.2338754376258,44.9470991082337,0102824120042,193,LIC391326,BLBrewery,Approved,On Sale,2020/12/08 14:09:08+00,2021,2021/10/01 23:59:59+00,Arbeiter Brewing Company,3036 MINNEHAHA AVE," Liquor, On Sale, Taproom No Entertainment",9,Longfellow,44.9471,-93.23388,-10378747.5384,5613197.1646,2020/12/09 18:15:18+00
-93.2470120464045,45.0073457269431,1202924330122,194,LIC374063,BLWine,Pending,On Sale,2020/03/23 08:59:52+00,2021,2021/04/01 23:59:59+00,MOMO SUSHI,1839 CENTRAL AVE NE," Wine, On Sale, Class E Entertainment; Wine, On Sale, Add Strong Beer; Wine, On Sale, No Entertainment",1,Windom Park,45.00735,-93.24701,-10380209.899,5622677.9947,2021/01/19 18:15:17+00
-93.3068150607065,44.9748364888586,2802924220069,195,LIC375498,BLLiquor,Pending,On Sale,2020/06/08 10:23:45+00,2021,2021/01/01 23:59:00+00,La Mesa,230 CEDAR LAKE RD S," Liquor, On Sale, Limited Entertainment",7,Bryn - Mawr,44.97484,-93.30682,-10386867.1401,5617560.8759,2020/10/20 18:15:17+00
-93.2365654256761,44.9804430547638,2402924430005,196,LIC386563,BLWine,Pending,On Sale,2020/03/23 08:56:52+00,2020,2020/04/01 23:59:59+00,Shuang Cheng Restaurant,1320 4TH ST SE," Wine, On Sale, Add Strong Beer; Wine, On Sale, No Entertainment",3,Marcy Holmes,44.98044,-93.23657,-10379046.9865,5618443.1707,2020/08/25 18:15:16+00
-93.257354582036,44.9886507501305,2302924120191,197,LIC388935,BLLiquor,Approved,On Sale,2020/10/26 09:21:56+00,2021,2021/10/01 23:59:59+00,Hyde,24 UNIVERSITY AVE NE #125," Liquor, On Sale, Limited Entertainment",3,Nicollet Island - East Bank,44.98865,-93.25735,-10381361.2248,5619734.956,2021/01/13 18:15:21+00
-93.2784349272952,44.933951951844,1002824210227,198,LIC389200,BLLiquor,Approved,On Sale,2020/10/26 09:21:57+00,2021,2021/10/01 11:59:00+00,Petite Leon,3800 NICOLLET AVE," Liquor, On Sale, No Entertainment",8,King Field,44.93395,-93.27843,-10383707.8781,5611129.559,2020/10/28 18:15:17+00
-93.2123797185657,44.921702750223,0702823440016,199,LIC389550,BLWine,Pending,On Sale,2020/10/26 10:30:13+00,2021,2021/04/01 23:59:59+00,Okome House,4457 42ND AVE S," Wine, On Sale, No Entertainment; Wine, On Sale, Add Strong Beer",12,Hiawatha,44.9217,-93.21238,-10376354.6459,5609203.5974,2021/01/19 18:15:17+00
-93.2904155579151,44.9197383092007,0902824440217,200,LIC390690,BLWine,Pending,On Sale,2020/10/26 15:21:45+00,2021,2021/04/01 23:59:59+00,Brasa Rotisserie,812 46TH ST W," Wine, On Sale, No Entertainment; Wine, On Sale, Add Strong Beer",13,East Harriet,44.91974,-93.29042,-10385041.5558,5608894.7634,2021/01/19 18:15:17+00
0,0,2602924230617,201,LIC391291,BLLiquor,Approved,On Sale,2020/10/26 09:21:59+00,2021,2021/10/01 23:59:59+00,Elliot Park Hotel,823 5TH AVE S," Liquor, On Sale, General Entertainment",7,Elliot Park,0,0,0,0,2020/10/27 18:15:18+00
-93.2736805631112,44.9808831047787,2202924420021,202,LIC391247,BLLiquor,Approved,On Sale,2020/11/23 14:30:21+00,2021,2021/10/01 23:59:59+00,Hark! Cafe,430 1ST AVE N #150," Liquor, On Sale, Limited Entertainment",3,Downtown West,44.98088,-93.27368,-10383178.6247,5618512.4242,2020/11/24 18:15:17+00
-93.2770718865651,44.9849339987632,2202924130344,203,LIC391632,BLLiquor,Approved,On Sale,2020/11/23 16:04:34+00,2021,2021/10/01 23:59:59+00,Graze Provisions & Libations,520 4TH ST N," Liquor, On Sale, Limited Entertainment",3,North Loop,44.98493,-93.27707,-10383556.1451,5619149.9644,2020/11/24 18:15:17+00
-93.2296383215859,44.987599777823,2402924140129,204,LIC65212,BLWine,Pending,On Sale,2019/04/23 07:50:42+00,2020,2020/04/01 00:00:00+00,The Blue Door - U,1514 COMO AVE SE," Wine, On Sale, Class E Entertainment; Wine, On Sale, Add Strong Beer; Wine, On Sale, No Entertainment",2,Como,44.9876,-93.22964,-10378275.8648,5619569.5362,2021/01/14 18:15:22+00
-93.220189102114,44.948125188234,0602823210096,205,LIC75924,BLLiquor,Pending,On Sale,2020/05/17 01:00:53+00,2021,2021/01/01 00:00:00+00,Merlins Rest Pub,3601 LAKE ST E," Liquor, On Sale, Class C1 Entertainment; Liquor, On Sale, Limited Entertainment",2,Longfellow,44.94813,-93.22019,-10377223.9825,5613358.5524,2021/01/14 18:15:22+00
-93.2537403820685,44.9904821338671,2302924120038,206,LIC75960,BLLiquor,Pending,On Sale,2020/05/17 01:00:54+00,2021,2021/01/01 00:00:00+00,RED STAG SUPPERCLUB,509 1ST AVE NE," Liquor, On Sale, Class B Entertainment; Liquor, On Sale, General Entertainment",3,Nicollet Island - East Bank,44.99048,-93.25374,-10380958.8939,5620023.2174,2021/01/14 18:15:22+00
-93.2628651372463,45.0012145070689,1402924230079,207,LIC77826,BLLiquor,Pending,On Sale,2020/05/17 01:01:23+00,2021,2021/01/01 00:00:00+00,331 Club,331 13TH AVE NE," Liquor, On Sale, Class A Entertainment; Liquor, On Sale, General Entertainment",3,Sheridan,45.00121,-93.26287,-10381974.657,5621712.6875,2021/01/28 18:15:17+00
-93.2549398449752,44.9846677938659,2302924130163,208,LIC77315,BLLiquor,Pending,On Sale,2020/05/17 01:01:14+00,2021,2021/01/01 00:00:00+00,Aster Cafe,125 MAIN ST SE," Liquor, On Sale, Class C2 Entertainment; Liquor, On Sale, Limited Entertainment",3,Marcy Holmes,44.98467,-93.25494,-10381092.4175,5619108.067,2021/01/14 18:15:22+00
-93.253976367697,44.9846400038368,2302924130623,209,LIC77596,BLLiquor,Pending,On Sale,2020/05/17 01:01:19+00,2021,2021/01/01 00:00:00+00,Jefe Urban Hacienda,219 MAIN ST SE," Liquor, On Sale, Class C1 Entertainment; Liquor, On Sale, Limited Entertainment",3,Marcy Holmes,44.98464,-93.25398,-10380985.1637,5619103.6932,2021/01/14 18:15:22+00
-93.2722030329965,44.9751474219488,2702924110072,210,LIC78007,BLLiquor,Pending,On Sale,2020/05/17 01:01:25+00,2021,2021/01/01 00:00:00+00,8th Street Grill & Tavern,800 MARQUETTE AVE #107," Liquor, On Sale, Class C1 Entertainment; Liquor, On Sale, Limited Entertainment",7,Downtown West,44.97515,-93.2722,-10383014.1468,5617609.8046,2021/01/14 18:15:22+00
-93.2658065897957,44.955209388251,3502924320483,211,LIC78174,BLLiquor,Pending,On Sale,2020/05/17 01:01:29+00,2021,2021/01/01 00:00:00+00,FIKA,2600 PARK AVE," Liquor, On Sale, Class B Entertainment; Liquor, On Sale, General Entertainment",6,Phillips West,44.95521,-93.26581,-10382302.098,5614472.8751,2021/01/14 18:15:22+00
-93.2247267666002,44.9360333640089,0602823330156,212,LIC79187,BLLiquor,Pending,On Sale,2020/05/17 01:01:45+00,2021,2021/01/01 00:00:00+00,The Howe Daily Kitchen & Bar,3675 MINNEHAHA AVE," Liquor, On Sale, Class E Entertainment; Liquor, On Sale, No Entertainment",12,Howe,44.93603,-93.22473,-10377729.113,5611456.8636,2021/01/28 18:15:17+00
-93.2330501472894,44.9753770751709,2502924110011,213,LIC80222,BLLiquor,Pending,On Sale,2020/05/17 01:02:06+00,2021,2021/01/01 00:00:00+00,GATEWAY CAFE BY D'AMICO & SONS,200 OAK ST SE," Liquor, On Sale, Class A Entertainment; Liquor, On Sale, General Entertainment",2,University of Minnesota,44.97538,-93.23305,-10378655.6675,5617645.9432,2021/01/14 18:15:22+00
-93.2791196878834,44.9749059249475,2702924210009,214,LIC79279,BLLiquor,Pending,On Sale,2019/12/16 13:07:41+00,2020,2020/07/01 00:00:00+00,Pizza Hut #31298,1101 HENNEPIN AVE," Liquor, On Sale, Class E Entertainment; Liquor, On Sale, No Entertainment",7,Downtown West,44.97491,-93.27912,-10383784.1053,5617571.8024,2021/01/28 18:15:17+00
-93.2813050652892,44.9740986118657,2702924210111,215,LIC79621,BLLiquor,Pending,On Sale,2020/05/17 01:01:53+00,2021,2021/01/01 00:00:00+00,Eli's Food & Cocktails,1225 HENNEPIN AVE," Liquor, On Sale, Class E Entertainment; Liquor, On Sale, No Entertainment",7,Loring Park,44.9741,-93.28131,-10384027.3804,5617444.764,2021/01/14 18:15:22+00
-93.2773895569007,44.9687861802193,2702924420071,216,LIC80600,BLLiquor,Pending,On Sale,2020/05/17 01:02:14+00,2021,2021/01/01 00:00:00+00,Ping's Szechuan Bar & Grill,1401 NICOLLET AVE," Liquor, On Sale, Class E Entertainment; Liquor, On Sale, No Entertainment",7,Loring Park,44.96879,-93.27739,-10383591.508,5616608.8469,2021/01/14 18:15:22+00
-93.2143680020049,44.9486398050688,3102923430043,217,LIC79554,BLLiquor,Pending,On Sale,2020/05/17 01:01:52+00,2021,2021/01/01 00:00:00+00,The Hi-Lo Diner,4020 LAKE ST E," Liquor, On Sale, Class E Entertainment; Liquor, On Sale, No Entertainment",2,Cooper,44.94864,-93.21437,-10376575.9806,5613439.4954,2021/01/14 18:15:22+00
-93.2876184951745,44.9558931106987,3402924230061,218,LIC79897,BLLiquor,Pending,On Sale,2020/05/17 01:01:59+00,2021,2021/01/01 00:00:00+00,The Bulldog Restaurant,2549 LYNDALE AVE S," Liquor, On Sale, Class E Entertainment; Liquor, On Sale, No Entertainment",10,Whittier,44.95589,-93.28762,-10384730.1882,5614580.4298,2021/01/14 18:15:22+00
-93.2688247521823,44.9759538827144,2702924110032,219,LIC372780,BLLiquor,Pending,On Sale,2020/05/18 01:02:13+00,2021,2021/01/01 23:59:00+00,Hyatt Centric Downtown Minneapolis,615 2ND AVE S," Liquor, On Sale, Class A Entertainment; Liquor, On Sale, General Entertainment",7,Downtown West,44.97595,-93.26882,-10382638.0783,5617736.7112,2021/01/14 18:15:22+00
-93.2716245898188,44.9815220038467,2202924419000,220,LIC373784,BLLiquor,Pending,On Sale,2020/05/18 01:02:13+00,2021,2021/01/01 23:59:59+00,Wild Greg's Saloon,315 1ST AVE N," Liquor, On Sale, Class B Entertainment; Liquor, On Sale, General Entertainment",3,Downtown West,44.98152,-93.27162,-10382949.7548,5618612.9728,2021/01/14 18:15:22+00
-93.2630292846015,44.9157594656857,1402824230058,221,LIC385677,BLLiquor,Pending,On Sale,2021/01/21 10:54:52+00,2021,2021/04/01 00:00:00+00,TOWN HALL TAP,4810 CHICAGO AVE," Liquor, On Sale, No Entertainment",8,Field,44.91576,-93.26303,-10381992.9298,5608269.2732,2021/01/22 18:15:17+00
-93.2809494743705,45.0097098620815,1002924310014,222,LIC385967,BLLiquor,Pending,On Sale,2020/05/18 01:02:19+00,2021,2021/01/01 23:59:59+00,Butcher Salt,208 29TH AVE N," Liquor, On Sale, Limited Entertainment",5,Hawthorne,45.00971,-93.28095,-10383987.7962,5623050.2348,2021/01/14 18:15:22+00
-93.3089379926236,45.0352330512562,0502924110002,223,LIC386332,BLWine,Pending,On Sale,2020/12/28 10:29:37+00,2021,2021/04/01 23:59:00+00,Tori 44,2201 44TH AVE N," Wine, On Sale, Add Strong Beer; Wine, On Sale, No Entertainment",4,Victory,45.03523,-93.30894,-10387103.4638,5627069.9155,2021/01/19 18:15:17+00
-93.2211039589757,44.9486563231101,3102923340156,224,LIC391744,BLLiquor,Approved,On Sale,2021/01/11 09:35:34+00,2022,2022/01/01 00:00:00+00,Galapagos Bar & Grill,3508 LAKE ST E," Liquor, On Sale, Limited Entertainment",2,Longfellow,44.94866,-93.2211,-10377325.8239,5613442.0935,2021/01/12 18:15:24+00
-93.3090557339096,44.9045686891796,2002824110182,225,LIC392061,BLWine,Pending,On Sale,2020/12/28 10:29:37+00,2021,2021/04/01 23:59:59+00,Kwan's,5412 PENN AVE S," Wine, On Sale, No Entertainment; Wine, On Sale, Add Strong Beer",13,Armatage,44.90457,-93.30906,-10387116.5707,5606510.2703,2021/01/19 18:15:17+00
-93.2546026389771,44.9889149396966,2302924120074,226,LIC107999,BLLiquor,Pending,On Sale,2020/05/17 01:02:18+00,2021,2021/01/01 00:00:00+00,Terminal Bar,409 HENNEPIN AVE E," Liquor, On Sale, Class B Entertainment; Liquor, On Sale, General Entertainment",3,Nicollet Island - East Bank,44.98891,-93.2546,-10381054.8799,5619776.5391,2021/01/13 18:15:21+00
-93.2231291559866,44.9732063437684,3002923230157,227,LIC107938,BLLiquor,Pending,On Sale,2020/05/17 01:02:18+00,2021,2021/01/01 00:00:00+00,Legendary Spice,317 HURON BLVD SE," Liquor, On Sale, Class E Entertainment; Liquor, On Sale, No Entertainment",2,Prospect Park - East River Road,44.97321,-93.22313,-10377551.2678,5617304.3592,2021/01/13 18:15:21+00
-93.275704486311,44.9873131468804,2202924130056,228,LIC76423,BLLiquor,Pending,On Sale,2020/05/17 01:01:04+00,2021,2021/01/01 00:00:00+00,Black Sheep Coal Fired Pizza,600 WASHINGTON AVE N," Liquor, On Sale, Class E Entertainment; Liquor, On Sale, No Entertainment",3,North Loop,44.98731,-93.2757,-10383403.9268,5619524.4219,2021/01/13 18:15:21+00
-93.2754776554135,44.9780087670849,2202924430209,229,LIC76294,BLLiquor,Pending,On Sale,2020/05/17 01:01:01+00,2021,2021/01/01 00:00:00+00,PANTAGES THEATRE,710 HENNEPIN AVE," Liquor, On Sale, Class C2 Entertainment; Liquor, On Sale, Limited Entertainment",7,Downtown West,44.97801,-93.27548,-10383378.6761,5618060.0808,2021/01/13 18:15:21+00
-93.2727850766219,44.9788252637753,2202924440010,230,LIC75575,BLLiquor,Pending,On Sale,2020/05/17 01:00:47+00,2021,2021/01/01 00:00:00+00,Lyon's Pub,16 6TH ST S #1ST FL," Liquor, On Sale, Class B Entertainment; Liquor, On Sale, General Entertainment",3,Downtown West,44.97883,-93.27279,-10383078.9396,5618188.5731,2021/01/13 18:15:21+00
-93.2568110590682,44.9880723720591,2302924120195,231,LIC76421,BLLiquor,Pending,On Sale,2020/05/17 01:01:04+00,2021,2021/01/01 00:00:00+00,Chipotle Mexican Grill #251,225 HENNEPIN AVE E," Liquor, On Sale, Class E Entertainment; Liquor, On Sale, No Entertainment",3,Nicollet Island - East Bank,44.98807,-93.25681,-10381300.7201,5619643.9207,2021/01/13 18:15:21+00
-93.2469312770807,44.9731778300663,2502924230075,232,LIC76198,BLLiquor,Pending,On Sale,2020/05/17 01:00:58+00,2021,2021/01/01 00:00:00+00,Chipotle Mexican Grill #268,229 CEDAR AVE S," Liquor, On Sale, Class E Entertainment; Liquor, On Sale, No Entertainment",6,Cedar Riverside,44.97318,-93.24693,-10380200.9078,5617299.8724,2021/01/13 18:15:21+00
-93.2475770040733,44.9705380580991,2602924140002,233,LIC76246,BLLiquor,Pending,On Sale,2020/05/17 01:00:59+00,2021,2021/01/01 00:00:00+00,Red Sea Bar & Restaurant,320 CEDAR AVE S," Liquor, On Sale, Class B Entertainment; Liquor, On Sale, General Entertainment",6,Cedar Riverside,44.97054,-93.24758,-10380272.7898,5616884.4983,2021/01/13 18:15:21+00
-93.277066430198,44.976826640062,2702924120054,234,LIC76559,BLLiquor,Pending,On Sale,2020/05/17 01:01:06+00,2021,2021/01/01 00:00:00+00,THE SALOON,830 HENNEPIN AVE," Liquor, On Sale, Class A, Adult Entertainment; Liquor, On Sale, Adult Entertainment",7,Downtown West,44.97683,-93.27707,-10383555.5377,5617874.0524,2021/01/13 18:15:21+00
-93.29725691332,44.9486698142283,3302924430090,235,LIC76010,BLLiquor,Pending,On Sale,2020/05/17 01:00:55+00,2021,2021/01/01 00:00:00+00,Stella's Fish Cafe,1400 LAKE ST W," Liquor, On Sale, Class B Entertainment; Liquor, On Sale, General Entertainment",10,Lowry Hill East,44.94867,-93.29726,-10385803.132,5613444.2155,2021/01/13 18:15:21+00
0,0,,236,LIC78567,BLLiquor,Pending,On Sale,2020/05/17 01:01:35+00,2021,2021/01/01 00:00:00+00,Ala Salsa Restaurant,920 LAKE ST E #155," Liquor, On Sale, Class E Entertainment; Liquor, On Sale, No Entertainment",,,0,0,0,0,2021/01/13 18:15:21+00
-93.2914166548408,44.9481279659553,0402824110058,237,LIC78620,BLLiquor,Pending,On Sale,2020/05/17 01:01:36+00,2021,2021/01/01 00:00:00+00,Morrissey's Irish Pub,913 LAKE ST W," Liquor, On Sale, Class C1 Entertainment; Liquor, On Sale, Limited Entertainment",10,South Uptown,44.94813,-93.29142,-10385152.9974,5613358.9893,2021/01/13 18:15:21+00
-93.298665775316,44.9474358482479,0402824210070,238,LIC78798,BLLiquor,Pending,On Sale,2020/05/17 01:01:38+00,2021,2021/01/01 00:00:00+00,Amazing Thailand,3024 HENNEPIN AVE," Liquor, On Sale, Class D Entertainment; Liquor, On Sale, Limited Entertainment",10,ECCO,44.94744,-93.29867,-10385959.9658,5613250.1287,2021/01/13 18:15:21+00
-93.2479103320443,45.0074147508408,1102924440197,239,LIC78098,BLLiquor,Pending,On Sale,2019/12/30 10:43:44+00,2020,2020/07/01 00:00:00+00,Maya Cuisine,1840 CENTRAL AVE NE," Liquor, On Sale, Class E Entertainment; Liquor, On Sale, No Entertainment",1,Logan Park,45.00741,-93.24791,-10380309.8957,5622688.8625,2021/01/13 18:15:21+00
-93.2785073036593,44.8926457328959,2202824340016,240,LIC78088,BLLiquor,Pending,On Sale,2020/05/17 01:01:27+00,2021,2021/01/01 00:00:00+00,Tailgate Sports Cafe/Patty Wagon,6042 NICOLLET AVE," Liquor, On Sale, Class E Entertainment; Liquor, On Sale, No Entertainment",11,Windom,44.89265,-93.27851,-10383715.935,5604636.5577,2021/01/13 18:15:21+00
-93.2765784581492,44.9869444312133,2202924130043,241,LIC77960,BLLiquor,Pending,On Sale,2020/05/17 01:01:25+00,2021,2021/01/01 00:00:00+00,Smack Shack,603 WASHINGTON AVE N," Liquor, On Sale, Class B Entertainment; Liquor, On Sale, General Entertainment",3,North Loop,44.98694,-93.27658,-10383501.2169,5619466.3882,2021/01/13 18:15:21+00
-93.268506900387,44.9845515690862,2202924140062,242,LIC77686,BLLiquor,Pending,On Sale,2020/05/17 01:01:20+00,2021,2021/01/01 00:00:00+00,Aria at the Jeune Lune,105 1ST ST N," Liquor, On Sale, Class A Entertainment; Liquor, On Sale, General Entertainment",3,North Loop,44.98455,-93.26851,-10382602.6952,5619089.7747,2021/01/13 18:15:21+00
-93.2807514865802,44.9899151038782,2202924210384,243,LIC77589,BLLiquor,Pending,On Sale,2020/05/17 01:01:18+00,2021,2021/01/01 00:00:00+00,Clubhouse Jaeger,923 WASHINGTON AVE N," Liquor, On Sale, Class B Entertainment; Liquor, On Sale, General Entertainment",3,North Loop,44.98992,-93.28075,-10383965.7563,5619933.9654,2021/01/13 18:15:21+00
-93.2723468919011,44.978634730726,2202924440048,244,LIC78495,BLLiquor,Pending,On Sale,2020/05/17 01:01:34+00,2021,2021/01/01 00:00:00+00,Murray's,24 6TH ST S #1ST FLOOR," Liquor, On Sale, Class B Entertainment; Liquor, On Sale, General Entertainment",3,Downtown West,44.97863,-93.27235,-10383030.1611,5618158.5887,2021/01/13 18:15:21+00
-93.2709997244021,44.975554772268,2702924110006,245,LIC78296,BLLiquor,Pending,On Sale,2020/05/17 01:01:31+00,2021,2021/01/01 00:00:00+00,HEN HOUSE EATERY,114 8TH ST S," Liquor, On Sale, Class E Entertainment; Liquor, On Sale, No Entertainment",7,Downtown West,44.97555,-93.271,-10382880.1951,5617673.906,2021/01/13 18:15:21+00
-93.2782643012901,44.9708598591422,2702924241543,246,LIC78132,BLLiquor,Pending,On Sale,2020/05/17 01:01:28+00,2021,2021/01/01 00:00:00+00,HYATT REGENCY MINNEAPOLIS,1300 NICOLLET MALL," Liquor, On Sale, Class A Entertainment; Liquor, On Sale, General Entertainment",7,Loring Park,44.97086,-93.27826,-10383688.8841,5616935.1334,2021/01/13 18:15:21+00
-93.2884646668497,44.9557012860117,3302924140177,247,LIC77397,BLLiquor,Pending,On Sale,2020/05/17 01:01:15+00,2021,2021/01/01 00:00:00+00,Common Roots Cafe,2558 LYNDALE AVE S," Liquor, On Sale, Class E Entertainment; Liquor, On Sale, No Entertainment",10,Lowry Hill East,44.9557,-93.28846,-10384824.3836,5614550.2542,2021/01/13 18:15:21+00
0,0,,248,LIC80722,BLLiquor,Pending,On Sale,2020/05/17 01:02:17+00,2021,2021/01/01 00:00:00+00,Central NE,700 CENTRAL AVE NE #A," Liquor, On Sale, Class C1 Entertainment; Liquor, On Sale, Limited Entertainment",,,0,0,0,0,2021/01/13 18:15:21+00
-93.302463617877,44.948069619792,0402824210033,249,LIC80075,BLLiquor,Pending,On Sale,2020/05/17 01:02:03+00,2021,2021/01/01 00:00:00+00,Amore Uptown,1601 LAKE ST W," Liquor, On Sale, Class E Entertainment; Liquor, On Sale, No Entertainment",10,ECCO,44.94807,-93.30246,-10386382.7397,5613349.8122,2021/01/13 18:15:21+00
-93.2469386477576,45.0124260180981,1202924320074,250,LIC80464,BLLiquor,Pending,On Sale,2020/05/17 01:02:11+00,2021,2021/01/01 00:00:00+00,ADELITAS MEXICAN RESTAURANT,2405 CENTRAL AVE NE," Liquor, On Sale, Class C2 Entertainment; Liquor, On Sale, Limited Entertainment",1,Windom Park,45.01243,-93.24694,-10380201.7283,5623477.9206,2021/01/13 18:15:21+00
-93.2681327062571,44.9980949287531,1502924410001,251,LIC79258,BLLiquor,Pending,On Sale,2020/05/17 01:01:46+00,2021,2021/01/01 00:00:00+00,THE 1029 BAR,1029 MARSHALL ST NE," Liquor, On Sale, Class E Entertainment; Liquor, On Sale, No Entertainment",3,St. Anthony West,44.99809,-93.26813,-10382561.0401,5621221.5767,2021/01/13 18:15:21+00
-93.2697205423021,44.9837719351042,2202924410104,252,LIC80604,BLLiquor,Pending,On Sale,2020/05/17 01:02:15+00,2021,2021/01/01 00:00:00+00,Red Cow,208 1ST AVE N," Liquor, On Sale, Class E Entertainment; Liquor, On Sale, No Entertainment",3,North Loop,44.98377,-93.26972,-10382737.7972,5618967.0712,2021/01/13 18:15:21+00
-93.271972024933,44.9804970033038,2202924440022,253,LIC80520,BLLiquor,Pending,On Sale,2020/05/17 01:02:13+00,2021,2021/01/01 00:00:00+00,Gay 90'S,400 HENNEPIN AVE," Liquor, On Sale, Class A, Adult Entertainment; Liquor, On Sale, Adult Entertainment",3,Downtown West,44.9805,-93.27197,-10382988.4311,5618451.6609,2021/01/13 18:15:21+00
-93.2534795122083,44.9893045899398,2302924120030,254,LIC79516,BLLiquor,Pending,On Sale,2020/05/17 01:01:51+00,2021,2021/01/01 00:00:00+00,CONGA LATIN BISTRO,501 HENNEPIN AVE E," Liquor, On Sale, Class B Entertainment; Liquor, On Sale, General Entertainment",3,Nicollet Island - East Bank,44.9893,-93.25348,-10380929.854,5619837.8699,2021/01/13 18:15:21+00
-93.2622664199909,44.9799239129595,2302924340079,255,LIC80237,BLLiquor,Pending,On Sale,2020/05/17 01:02:06+00,2021,2021/01/01 00:00:00+00,"The Depot Minneapolis, a Renaissance Hotel",225 3RD AVE S," Liquor, On Sale, Class B Entertainment; Liquor, On Sale, General Entertainment",3,Downtown West,44.97992,-93.26227,-10381908.0081,5618361.4707,2021/01/13 18:15:21+00
-93.2757427518471,44.9766158392402,2702924120123,256,LIC79883,BLLiquor,Pending,On Sale,2020/05/17 01:01:58+00,2021,2021/01/01 00:00:00+00,State Theatre,805 HENNEPIN AVE," Liquor, On Sale, Class C2 Entertainment; Liquor, On Sale, Limited Entertainment",7,Downtown West,44.97662,-93.27574,-10383408.1865,5617840.8796,2021/01/13 18:15:21+00
-93.2793674019163,44.9748042399561,2702924210012,257,LIC79153,BLLiquor,Pending,On Sale,2020/05/17 01:01:44+00,2021,2021/01/01 00:00:00+00,THE BULLDOG DOWNTOWN,1111 HENNEPIN AVE," Liquor, On Sale, Class C1 Entertainment; Liquor, On Sale, Limited Entertainment",7,Downtown West,44.9748,-93.27937,-10383811.6807,5617555.8012,2021/01/13 18:15:21+00
-93.2779181211223,44.9767211329901,2702924210030,258,LIC80247,BLLiquor,Pending,On Sale,2020/05/17 01:02:07+00,2021,2021/01/01 00:00:00+00,Orpheum Theatre,910 HENNEPIN AVE," Liquor, On Sale, Class C2 Entertainment; Liquor, On Sale, Limited Entertainment",7,Downtown West,44.97672,-93.27792,-10383650.3475,5617857.4492,2021/01/13 18:15:21+00
-93.2215675669175,44.9738622299919,3002923210043,259,LIC79903,BLLiquor,Pending,On Sale,2020/05/17 01:02:00+00,2021,2021/01/01 00:00:00+00,TEA HOUSE CHINESE RESTAURANT,2425 UNIVERSITY AVE SE," Liquor, On Sale, Class E Entertainment; Liquor, On Sale, No Entertainment",2,Prospect Park - East River Road,44.97386,-93.22157,-10377377.4325,5617407.5674,2021/01/13 18:15:21+00
-93.2194923238639,44.9720043627588,3002923240030,260,LIC79898,BLLiquor,Pending,On Sale,2020/05/17 01:01:59+00,2021,2021/01/01 00:00:00+00,Profile Event Center,2630 UNIVERSITY AVE SE," Liquor, On Sale, Class B Entertainment; Liquor, On Sale, General Entertainment",2,Prospect Park - East River Road,44.972,-93.21949,-10377146.4175,5617115.2223,2021/01/13 18:15:21+00
-93.2978673481999,44.9511958863167,3302924430124,261,LIC80319,BLLiquor,Pending,On Sale,2020/05/17 01:02:09+00,2021,2021/01/01 00:00:00+00,Kiku Bistro,2819 HENNEPIN AVE," Liquor, On Sale, Class E Entertainment; Liquor, On Sale, No Entertainment",10,Lowry Hill East,44.9512,-93.29787,-10385871.0853,5613841.5468,2021/01/13 18:15:21+00
-93.3052461827072,45.0129985802608,0902924320151,262,LIC375497,BLLiquor,Pending,On Sale,2020/05/18 01:02:15+00,2021,2021/01/01 23:59:00+00,The Regime,2015 LOWRY AVE N," Liquor, On Sale, Limited Entertainment",5,Jordan,45.013,-93.30525,-10386692.4934,5623568.0788,2021/01/13 18:15:21+00
-93.3090557339096,44.9045686891796,2002824110182,263,LIC375684,BLLiquor,Pending,On Sale,2020/05/18 01:02:16+00,2021,2021/01/01 23:59:00+00,Red Wagon Pizza,5416 PENN AVE S," Liquor, On Sale, No Entertainment",13,Armatage,44.90457,-93.30906,-10387116.5707,5606510.2703,2021/01/13 18:15:21+00
-93.2973465085914,44.9497219419348,3302924439002,264,LIC80717,BLLiquor,Pending,On Sale,2020/05/17 01:02:16+00,2021,2021/01/01 00:00:00+00,Origami Uptown,1354 LAGOON AVE," Liquor, On Sale, Class E Entertainment; Liquor, On Sale, No Entertainment",10,Lowry Hill East,44.94972,-93.29735,-10385813.1057,5613609.7048,2021/01/13 18:15:21+00
-93.2876752022252,44.9485369253037,3402924330105,265,LIC386616,BLLiquor,Pending,On Sale,2020/05/18 01:02:20+00,2021,2021/01/01 23:59:59+00,It's Greek to Me - Taverna & Parea,626 LAKE ST W," Liquor, On Sale, Limited Entertainment",10,Whittier,44.94854,-93.28768,-10384736.5008,5613423.3136,2021/01/13 18:15:21+00
-93.2338754376258,44.9470991082337,0102824120042,266,LIC391328,BLBrewery,Approved,On Sale,2021/01/21 10:17:40+00,2021,2021/10/01 00:00:00+00,Arbeiter Brewing Company,3036 MINNEHAHA AVE, BL Sunday Sales Exemption,9,Longfellow,44.9471,-93.23388,-10378747.5384,5613197.1646,2021/01/22 18:15:17+00
-93.2338754376258,44.9470991082337,0102824120042,267,LIC391328,BLBrewery,Approved,On Sale,2021/01/21 10:17:40+00,2021,2021/10/01 00:00:00+00,Arbeiter Brewing Company,3036 MINNEHAHA AVE, BL Sunday Sales Exemption,9,Longfellow,44.9471,-93.23388,-10378747.5384,5613197.1646,2021/01/22 18:15:17+00
